{
"type": "FeatureCollection",
"name": "Air_Terjun",
"crs": { "type": "name", "properties": { "name": "urn:ogc:def:crs:OGC:1.3:CRS84" } },
"features": [
{ "type": "Feature", "properties": { "Nama": "Air Terjun Kedhung Bendho", "Deskripsi": "Air Terjun Kedhung Bendho merupakan air terjun alami yang berada di aliran Sungai Progo, di sebelah utara Jembatan Gantung Duwet. Berlokasi di kawasan perbatasan Padukuhan Duwet II dan Kecamatan Ngluwar, Kabupaten Magelang, air terjun ini menjadi salah satu destinasi alam tersembunyi yang menarik untuk dikunjungi.", "Foto": "assets/images/Air_Terjun.JPG" }, "geometry": { "type": "Point", "coordinates": [ 110.26579003322793, -7.691708267170395 ] } }
]
}
