{
"type": "FeatureCollection",
"name": "Batas_Kecamatan",
"crs": { "type": "name", "properties": { "name": "urn:ogc:def:crs:OGC:1.3:CRS84" } },
"features": [
{ "type": "Feature", "properties": { "NAMOBJ": "Banjarsari", "WADMKC": "Kalibawang", "WADMKK": "Kabupaten Kulonprogo", "WADMPR": "Daerah Istimewa Yogyakarta" }, "geometry": { "type": "MultiPolygon", "coordinates": [ [ [ [ 110.22682699900011, -7.671785, 0.0 ], [ 110.226812, -7.671819, 0.0 ], [ 110.226826, -7.67183, 0.0 ], [ 110.226974001000116, -7.671947, 0.0 ], [ 110.226957999000035, -7.671973, 0.0 ], [ 110.226956999000038, -7.671999, 0.0 ], [ 110.227124, -7.672008, 0.0 ], [ 110.227385001000101, -7.672307, 0.0 ], [ 110.227674, -7.672636998999984, 0.0 ], [ 110.22773, -7.673055, 0.0 ], [ 110.227805, -7.673233, 0.0 ], [ 110.227923, -7.673410999999899, 0.0 ], [ 110.228013999000012, -7.673578, 0.0 ], [ 110.228025, -7.673611000999927, 0.0 ], [ 110.228045001000083, -7.673823, 0.0 ], [ 110.228028, -7.674255999, 0.0 ], [ 110.227990999000056, -7.674443, 0.0 ], [ 110.227988, -7.674658, 0.0 ], [ 110.228034, -7.674722000999925, 0.0 ], [ 110.228236, -7.674734, 0.0 ], [ 110.228277, -7.674746, 0.0 ], [ 110.228336, -7.674799000999901, 0.0 ], [ 110.228365, -7.674833, 0.0 ], [ 110.228508, -7.675053000999956, 0.0 ], [ 110.228627000000102, -7.675299, 0.0 ], [ 110.22871400000011, -7.67551, 0.0 ], [ 110.228773, -7.675646, 0.0 ], [ 110.228815, -7.675850001, 0.0 ], [ 110.228819, -7.675868, 0.0 ], [ 110.228839, -7.676126, 0.0 ], [ 110.228839, -7.676187, 0.0 ], [ 110.228837, -7.676374, 0.0 ], [ 110.228717, -7.67643900099997, 0.0 ], [ 110.228686, -7.676467, 0.0 ], [ 110.228655999000097, -7.676503, 0.0 ], [ 110.228574, -7.676603, 0.0 ], [ 110.228458999000054, -7.676686000999979, 0.0 ], [ 110.228449, -7.676686, 0.0 ], [ 110.228436, -7.676869998999926, 0.0 ], [ 110.228489, -7.677163998999916, 0.0 ], [ 110.228595, -7.677497, 0.0 ], [ 110.228782, -7.677698, 0.0 ], [ 110.228892999000081, -7.677829, 0.0 ], [ 110.228938, -7.677832, 0.0 ], [ 110.229353001000035, -7.677919000999946, 0.0 ], [ 110.229394, -7.677940001, 0.0 ], [ 110.229505, -7.678042, 0.0 ], [ 110.229682001000086, -7.678279, 0.0 ], [ 110.229887, -7.678612, 0.0 ], [ 110.230247000000119, -7.67897, 0.0 ], [ 110.230688, -7.679403, 0.0 ], [ 110.230699, -7.679428, 0.0 ], [ 110.230876999000103, -7.679786, 0.0 ], [ 110.230894, -7.679954, 0.0 ], [ 110.230861, -7.680118, 0.0 ], [ 110.230766, -7.680264998999988, 0.0 ], [ 110.230767, -7.680335000999918, 0.0 ], [ 110.230784, -7.68047, 0.0 ], [ 110.230827, -7.68056, 0.0 ], [ 110.230892, -7.680656, 0.0 ], [ 110.23102, -7.680975, 0.0 ], [ 110.231044, -7.68114, 0.0 ], [ 110.231045, -7.681467000999966, 0.0 ], [ 110.231046, -7.681620000999924, 0.0 ], [ 110.231077999000036, -7.68181700099997, 0.0 ], [ 110.231134, -7.681880998999937, 0.0 ], [ 110.231247, -7.681996, 0.0 ], [ 110.231335, -7.682129, 0.0 ], [ 110.231438001000072, -7.682190001000013, 0.0 ], [ 110.231472, -7.682157, 0.0 ], [ 110.231493, -7.682139, 0.0 ], [ 110.231625, -7.682027000999938, 0.0 ], [ 110.231773999000069, -7.68198600099992, 0.0 ], [ 110.232010999000053, -7.682003, 0.0 ], [ 110.232123999000081, -7.682075, 0.0 ], [ 110.232500000000101, -7.682398, 0.0 ], [ 110.232564, -7.682447, 0.0 ], [ 110.232638, -7.682428, 0.0 ], [ 110.232817, -7.682315, 0.0 ], [ 110.233005, -7.68225, 0.0 ], [ 110.233075, -7.682456, 0.0 ], [ 110.23314, -7.682646, 0.0 ], [ 110.233176001000075, -7.682828000999955, 0.0 ], [ 110.233137001000046, -7.683162, 0.0 ], [ 110.233095, -7.683515, 0.0 ], [ 110.23311, -7.683696998999913, 0.0 ], [ 110.233169000000117, -7.683823, 0.0 ], [ 110.233179, -7.683838, 0.0 ], [ 110.233517, -7.684231, 0.0 ], [ 110.233729, -7.68453, 0.0 ], [ 110.233756, -7.684620999999893, 0.0 ], [ 110.23374200100001, -7.684943, 0.0 ], [ 110.233881, -7.685134000999973, 0.0 ], [ 110.233907, -7.685217, 0.0 ], [ 110.233921, -7.685262, 0.0 ], [ 110.23397, -7.685375, 0.0 ], [ 110.234052, -7.685564, 0.0 ], [ 110.234093999, -7.685764, 0.0 ], [ 110.234095, -7.685821998999966, 0.0 ], [ 110.23431, -7.686358, 0.0 ], [ 110.234604, -7.686879, 0.0 ], [ 110.234919, -7.687436, 0.0 ], [ 110.234961, -7.68749, 0.0 ], [ 110.235098, -7.687811, 0.0 ], [ 110.235151, -7.687864001, 0.0 ], [ 110.235191999000079, -7.687907, 0.0 ], [ 110.235287000000127, -7.688125, 0.0 ], [ 110.235341, -7.688276000999974, 0.0 ], [ 110.235359, -7.688345, 0.0 ], [ 110.235453, -7.688706999000019, 0.0 ], [ 110.235654, -7.689005, 0.0 ], [ 110.235790001000083, -7.689057, 0.0 ], [ 110.235964001000099, -7.689071000999938, 0.0 ], [ 110.236231, -7.689106, 0.0 ], [ 110.236461, -7.689125, 0.0 ], [ 110.23705, -7.689246, 0.0 ], [ 110.237518, -7.68942, 0.0 ], [ 110.238025, -7.689697, 0.0 ], [ 110.238051, -7.689741, 0.0 ], [ 110.23814, -7.68981, 0.0 ], [ 110.238151, -7.689814, 0.0 ], [ 110.238385, -7.689891, 0.0 ], [ 110.238600999000056, -7.689968, 0.0 ], [ 110.238778, -7.690069, 0.0 ], [ 110.238784, -7.690073998999971, 0.0 ], [ 110.238912000000127, -7.690147000999971, 0.0 ], [ 110.23908, -7.690253, 0.0 ], [ 110.23921, -7.69039, 0.0 ], [ 110.239265, -7.690502998999939, 0.0 ], [ 110.239336, -7.690546, 0.0 ], [ 110.23945100000013, -7.690553, 0.0 ], [ 110.239527, -7.69052, 0.0 ], [ 110.239578, -7.690665, 0.0 ], [ 110.240781001000045, -7.691856, 0.0 ], [ 110.241276, -7.692457, 0.0 ], [ 110.24144899900007, -7.693045, 0.0 ], [ 110.241527999000127, -7.693499, 0.0 ], [ 110.24146, -7.694179000999981, 0.0 ], [ 110.241204, -7.69486, 0.0 ], [ 110.240829000000105, -7.695326, 0.0 ], [ 110.24048, -7.695766, 0.0 ], [ 110.240251, -7.696166, 0.0 ], [ 110.240117001000087, -7.696513, 0.0 ], [ 110.240076, -7.696887, 0.0 ], [ 110.240141999000016, -7.697394, 0.0 ], [ 110.240342, -7.697995, 0.0 ], [ 110.240568999000089, -7.698449, 0.0 ], [ 110.240742, -7.698757, 0.0 ], [ 110.240822, -7.699103998999892, 0.0 ], [ 110.240848, -7.699504000999948, 0.0 ], [ 110.240657, -7.699935001, 0.0 ], [ 110.240334999000083, -7.700652999999893, 0.0 ], [ 110.240021, -7.701283000999972, 0.0 ], [ 110.239874999000037, -7.701515000999983, 0.0 ], [ 110.239708, -7.701754, 0.0 ], [ 110.239627, -7.702022000999921, 0.0 ], [ 110.239598, -7.702312000999935, 0.0 ], [ 110.239692, -7.702624000999904, 0.0 ], [ 110.239690001000014, -7.702822000999944, 0.0 ], [ 110.239853, -7.702926, 0.0 ], [ 110.239976, -7.70299, 0.0 ], [ 110.240289000000104, -7.703118, 0.0 ], [ 110.240392, -7.703147, 0.0 ], [ 110.240404000000112, -7.703148, 0.0 ], [ 110.240739000000119, -7.703042, 0.0 ], [ 110.240889, -7.702994, 0.0 ], [ 110.240984, -7.702949, 0.0 ], [ 110.240998999000055, -7.702936, 0.0 ], [ 110.241089, -7.702857, 0.0 ], [ 110.241131001000042, -7.70281, 0.0 ], [ 110.241232999000047, -7.702677, 0.0 ], [ 110.241276, -7.702622, 0.0 ], [ 110.241290999000057, -7.70261, 0.0 ], [ 110.241751, -7.702957, 0.0 ], [ 110.241779000000108, -7.702986, 0.0 ], [ 110.24194, -7.703145, 0.0 ], [ 110.242132999, -7.703315998999962, 0.0 ], [ 110.242245999000019, -7.703464, 0.0 ], [ 110.242511, -7.703927, 0.0 ], [ 110.24255700100008, -7.70411200099992, 0.0 ], [ 110.242534, -7.704424, 0.0 ], [ 110.242439001, -7.704609, 0.0 ], [ 110.242517, -7.704556, 0.0 ], [ 110.242584, -7.704511, 0.0 ], [ 110.242638, -7.704537000999913, 0.0 ], [ 110.242632, -7.704588, 0.0 ], [ 110.24256, -7.704797, 0.0 ], [ 110.242532, -7.704927, 0.0 ], [ 110.242527, -7.70537, 0.0 ], [ 110.242512, -7.705431000999987, 0.0 ], [ 110.242778, -7.705839, 0.0 ], [ 110.243, -7.706181, 0.0 ], [ 110.243123000000111, -7.706357, 0.0 ], [ 110.243181, -7.706439999999894, 0.0 ], [ 110.243220001000054, -7.706517, 0.0 ], [ 110.243291, -7.706567, 0.0 ], [ 110.243526, -7.7067, 0.0 ], [ 110.243719, -7.706828, 0.0 ], [ 110.243929999000088, -7.706868, 0.0 ], [ 110.244164, -7.70692, 0.0 ], [ 110.244206000000105, -7.70693900099997, 0.0 ], [ 110.244233, -7.706953, 0.0 ], [ 110.244332999000036, -7.70704, 0.0 ], [ 110.244466001000035, -7.707119, 0.0 ], [ 110.244728, -7.707141, 0.0 ], [ 110.245154000000113, -7.707158, 0.0 ], [ 110.245233, -7.707228001, 0.0 ], [ 110.245327999000025, -7.707422, 0.0 ], [ 110.245369, -7.707584, 0.0 ], [ 110.2454, -7.707728, 0.0 ], [ 110.245474, -7.707792, 0.0 ], [ 110.245511, -7.707769000999988, 0.0 ], [ 110.245835, -7.707346, 0.0 ], [ 110.245946, -7.707087, 0.0 ], [ 110.246566, -7.707163, 0.0 ], [ 110.247261999000088, -7.707351, 0.0 ], [ 110.247891, -7.7075790009999, 0.0 ], [ 110.248479, -7.707861, 0.0 ], [ 110.249215, -7.708289, 0.0 ], [ 110.24954, -7.708590000999973, 0.0 ], [ 110.249229, -7.708733999999897, 0.0 ], [ 110.248897, -7.709022, 0.0 ], [ 110.248822009255903, -7.709092239264461, 0.0 ], [ 110.248807445000153, -7.709099883999972, 0.0 ], [ 110.247557175116256, -7.709987880286253, 0.0 ], [ 110.247380672682084, -7.710063919654832, 0.0 ], [ 110.246877855224184, -7.710085861578222, 0.0 ], [ 110.246038, -7.709967, 0.0 ], [ 110.245023, -7.709965, 0.0 ], [ 110.244319, -7.710025, 0.0 ], [ 110.243261999000069, -7.71035399899991, 0.0 ], [ 110.242616471601423, -7.710741973435866, 0.0 ], [ 110.240951844000051, -7.711574687999924, 0.0 ], [ 110.239570166000135, -7.712165613999968, 0.0 ], [ 110.237747647999967, -7.713271457999983, 0.0 ], [ 110.235408484000047, -7.713390416999879, 0.0 ], [ 110.234286679651703, -7.713288631224426, 0.0 ], [ 110.234042, -7.713227, 0.0 ], [ 110.233421, -7.713206, 0.0 ], [ 110.233131, -7.713288, 0.0 ], [ 110.232970926385804, -7.713383132378794, 0.0 ], [ 110.232845602012617, -7.713399621726282, 0.0 ], [ 110.23281299900006, -7.712989, 0.0 ], [ 110.232812, -7.712645, 0.0 ], [ 110.232785001000053, -7.712361, 0.0 ], [ 110.233042, -7.711944, 0.0 ], [ 110.233184, -7.7118, 0.0 ], [ 110.233192, -7.711796, 0.0 ], [ 110.233143, -7.711437999999895, 0.0 ], [ 110.233144, -7.711029, 0.0 ], [ 110.233025, -7.710639, 0.0 ], [ 110.232874, -7.71037499899996, 0.0 ], [ 110.232641, -7.710199, 0.0 ], [ 110.232302999000055, -7.7101, 0.0 ], [ 110.232161000000119, -7.710165, 0.0 ], [ 110.231957000000108, -7.71, 0.0 ], [ 110.231663000000125, -7.709848, 0.0 ], [ 110.231607, -7.709825, 0.0 ], [ 110.231276, -7.709677, 0.0 ], [ 110.230833000000104, -7.709389, 0.0 ], [ 110.230631, -7.709221998999951, 0.0 ], [ 110.230617, -7.709203998999971, 0.0 ], [ 110.230507, -7.709128, 0.0 ], [ 110.230418, -7.709069, 0.0 ], [ 110.230374, -7.70904, 0.0 ], [ 110.230315, -7.708997, 0.0 ], [ 110.230112, -7.708846, 0.0 ], [ 110.229945, -7.708693000999968, 0.0 ], [ 110.229597, -7.708359, 0.0 ], [ 110.229087, -7.707825, 0.0 ], [ 110.228943001000047, -7.707636, 0.0 ], [ 110.228455, -7.70703500099992, 0.0 ], [ 110.227991999000054, -7.706522, 0.0 ], [ 110.227341, -7.705808001, 0.0 ], [ 110.227241, -7.705698, 0.0 ], [ 110.22705, -7.70548, 0.0 ], [ 110.226835, -7.705253, 0.0 ], [ 110.226734, -7.7051, 0.0 ], [ 110.226677, -7.705052, 0.0 ], [ 110.226347, -7.704566, 0.0 ], [ 110.226277999000075, -7.704473, 0.0 ], [ 110.226018001000057, -7.704128, 0.0 ], [ 110.22553, -7.7035, 0.0 ], [ 110.225421, -7.703276, 0.0 ], [ 110.225388, -7.703158, 0.0 ], [ 110.225389, -7.703154000999969, 0.0 ], [ 110.225215, -7.703128, 0.0 ], [ 110.225212, -7.703124, 0.0 ], [ 110.225013, -7.70292, 0.0 ], [ 110.22485099900004, -7.702684, 0.0 ], [ 110.224776, -7.702568000999978, 0.0 ], [ 110.224625, -7.702487, 0.0 ], [ 110.224508, -7.70245100099989, 0.0 ], [ 110.22431, -7.702466, 0.0 ], [ 110.224139, -7.702481, 0.0 ], [ 110.223815, -7.702368, 0.0 ], [ 110.223647, -7.702193, 0.0 ], [ 110.223307, -7.701622, 0.0 ], [ 110.223154, -7.701392, 0.0 ], [ 110.223034001000073, -7.701288, 0.0 ], [ 110.222871, -7.701203000999925, 0.0 ], [ 110.22276, -7.701186, 0.0 ], [ 110.222246, -7.701384998999973, 0.0 ], [ 110.222053, -7.70142, 0.0 ], [ 110.22176100100009, -7.701408, 0.0 ], [ 110.221705, -7.701396, 0.0 ], [ 110.221443, -7.701564, 0.0 ], [ 110.221052, -7.701739, 0.0 ], [ 110.220553, -7.701964, 0.0 ], [ 110.2200050000001, -7.702089, 0.0 ], [ 110.21948600100005, -7.702326, 0.0 ], [ 110.218986, -7.702902, 0.0 ], [ 110.218949, -7.702934000999974, 0.0 ], [ 110.218366, -7.703333, 0.0 ], [ 110.218077, -7.703503, 0.0 ], [ 110.218041, -7.703525, 0.0 ], [ 110.217876, -7.703697, 0.0 ], [ 110.217836999000042, -7.703738000999973, 0.0 ], [ 110.217676, -7.703626998999937, 0.0 ], [ 110.217143, -7.703213, 0.0 ], [ 110.216935, -7.702989, 0.0 ], [ 110.216888, -7.702946999999895, 0.0 ], [ 110.216835, -7.702922998999952, 0.0 ], [ 110.216569, -7.702882, 0.0 ], [ 110.216402001000063, -7.702848998999958, 0.0 ], [ 110.216056, -7.702731, 0.0 ], [ 110.215947, -7.702634, 0.0 ], [ 110.215899999000086, -7.702597, 0.0 ], [ 110.215638001000087, -7.702391, 0.0 ], [ 110.215452, -7.702204, 0.0 ], [ 110.215244, -7.701809000999972, 0.0 ], [ 110.215239, -7.701797, 0.0 ], [ 110.215069, -7.70139, 0.0 ], [ 110.214882, -7.701175, 0.0 ], [ 110.2146410000001, -7.700988999999893, 0.0 ], [ 110.21442399900009, -7.700793, 0.0 ], [ 110.214334000000107, -7.700727, 0.0 ], [ 110.214128000000116, -7.700647, 0.0 ], [ 110.213704, -7.700578000999904, 0.0 ], [ 110.213077, -7.700412, 0.0 ], [ 110.21249, -7.700292, 0.0 ], [ 110.212000999000068, -7.700143, 0.0 ], [ 110.21199500100002, -7.700141, 0.0 ], [ 110.211991, -7.700135998999926, 0.0 ], [ 110.211818001000026, -7.699992, 0.0 ], [ 110.211785999000043, -7.69996, 0.0 ], [ 110.211671000000123, -7.699876, 0.0 ], [ 110.211512999000021, -7.699814, 0.0 ], [ 110.211466000000129, -7.699798, 0.0 ], [ 110.211281, -7.699828, 0.0 ], [ 110.211156, -7.699827, 0.0 ], [ 110.21109, -7.699816, 0.0 ], [ 110.210986, -7.699833000999902, 0.0 ], [ 110.210973, -7.699836, 0.0 ], [ 110.210967, -7.699838, 0.0 ], [ 110.210921, -7.69983, 0.0 ], [ 110.210859, -7.69978, 0.0 ], [ 110.210783, -7.6997, 0.0 ], [ 110.210754999000088, -7.699669, 0.0 ], [ 110.210673, -7.699621, 0.0 ], [ 110.21051400100005, -7.699574, 0.0 ], [ 110.210498, -7.699568000999914, 0.0 ], [ 110.210356, -7.69949, 0.0 ], [ 110.210307, -7.699456, 0.0 ], [ 110.210201001000087, -7.699314000999948, 0.0 ], [ 110.210131, -7.699162, 0.0 ], [ 110.210047000000131, -7.698929, 0.0 ], [ 110.209918000000116, -7.698758, 0.0 ], [ 110.209757000000124, -7.698552, 0.0 ], [ 110.209645, -7.698418998999969, 0.0 ], [ 110.209547, -7.698333, 0.0 ], [ 110.209363001000028, -7.698005001, 0.0 ], [ 110.209105, -7.697738, 0.0 ], [ 110.208952, -7.697648, 0.0 ], [ 110.208715, -7.69755, 0.0 ], [ 110.208523, -7.697393000999988, 0.0 ], [ 110.208426000000131, -7.697247, 0.0 ], [ 110.208421, -7.697224, 0.0 ], [ 110.207954, -7.697238, 0.0 ], [ 110.207556, -7.69711, 0.0 ], [ 110.207785999000109, -7.696715, 0.0 ], [ 110.207848, -7.696631, 0.0 ], [ 110.207941, -7.696486, 0.0 ], [ 110.208014001000052, -7.696392, 0.0 ], [ 110.208151, -7.696214, 0.0 ], [ 110.208265, -7.696006, 0.0 ], [ 110.208363, -7.695833, 0.0 ], [ 110.208507001000072, -7.695584, 0.0 ], [ 110.208516000000117, -7.695568000999977, 0.0 ], [ 110.208584, -7.695376, 0.0 ], [ 110.208578, -7.695065, 0.0 ], [ 110.208565001000082, -7.695031, 0.0 ], [ 110.208474, -7.694864999999897, 0.0 ], [ 110.208402, -7.694797, 0.0 ], [ 110.20832900100001, -7.694761, 0.0 ], [ 110.20820900000011, -7.694634000999969, 0.0 ], [ 110.208186, -7.69433, 0.0 ], [ 110.208340000000121, -7.693997, 0.0 ], [ 110.208369, -7.693743, 0.0 ], [ 110.20844, -7.693588, 0.0 ], [ 110.208682, -7.692995000999893, 0.0 ], [ 110.208708000000101, -7.692931, 0.0 ], [ 110.208791, -7.692715001, 0.0 ], [ 110.208795000000109, -7.692703000999892, 0.0 ], [ 110.208973, -7.692564, 0.0 ], [ 110.209204, -7.691901, 0.0 ], [ 110.209228001000042, -7.691669000999958, 0.0 ], [ 110.209284001000057, -7.691112, 0.0 ], [ 110.209286, -7.691075, 0.0 ], [ 110.209334000000112, -7.690882, 0.0 ], [ 110.209385, -7.690702, 0.0 ], [ 110.20927, -7.690477, 0.0 ], [ 110.209228999000047, -7.690384, 0.0 ], [ 110.209321, -7.690255, 0.0 ], [ 110.209381, -7.690173, 0.0 ], [ 110.209357, -7.689731, 0.0 ], [ 110.209313999000059, -7.68951, 0.0 ], [ 110.209254, -7.689342, 0.0 ], [ 110.209204, -7.689287, 0.0 ], [ 110.209078, -7.689239999999888, 0.0 ], [ 110.208744, -7.688908, 0.0 ], [ 110.208556, -7.688714, 0.0 ], [ 110.208452999000045, -7.688597, 0.0 ], [ 110.208303, -7.688321, 0.0 ], [ 110.208185, -7.687968998999974, 0.0 ], [ 110.20816, -7.687699, 0.0 ], [ 110.208012, -7.686963, 0.0 ], [ 110.207953, -7.686805000999943, 0.0 ], [ 110.207952, -7.686726, 0.0 ], [ 110.207974, -7.686669, 0.0 ], [ 110.207998, -7.686614, 0.0 ], [ 110.208115, -7.686493000999974, 0.0 ], [ 110.20817, -7.686424, 0.0 ], [ 110.208166000000105, -7.686393, 0.0 ], [ 110.208298, -7.686267001000015, 0.0 ], [ 110.208664999000092, -7.685793000999965, 0.0 ], [ 110.208833, -7.68556, 0.0 ], [ 110.208908, -7.685458, 0.0 ], [ 110.208993, -7.685339, 0.0 ], [ 110.209047, -7.685251000999884, 0.0 ], [ 110.209072, -7.68519, 0.0 ], [ 110.20915, -7.685097000999932, 0.0 ], [ 110.209266001000088, -7.685031, 0.0 ], [ 110.209499, -7.684998000999911, 0.0 ], [ 110.20950700000013, -7.684996, 0.0 ], [ 110.209702, -7.684987, 0.0 ], [ 110.209732, -7.684988, 0.0 ], [ 110.2098340000001, -7.684992, 0.0 ], [ 110.209944, -7.684989, 0.0 ], [ 110.210012, -7.684987, 0.0 ], [ 110.210133, -7.684997, 0.0 ], [ 110.21023, -7.685000000999899, 0.0 ], [ 110.210361, -7.684991, 0.0 ], [ 110.210463999000083, -7.684968, 0.0 ], [ 110.210575999000113, -7.684905, 0.0 ], [ 110.210632000000132, -7.684866, 0.0 ], [ 110.210733, -7.684759000999943, 0.0 ], [ 110.210788, -7.684723, 0.0 ], [ 110.210771, -7.6847, 0.0 ], [ 110.210864, -7.68455, 0.0 ], [ 110.210963, -7.684491000999973, 0.0 ], [ 110.211102, -7.684454, 0.0 ], [ 110.211275, -7.684452000999944, 0.0 ], [ 110.211445, -7.684479, 0.0 ], [ 110.21158, -7.684537, 0.0 ], [ 110.211594999000056, -7.684542, 0.0 ], [ 110.211755, -7.684614, 0.0 ], [ 110.211829, -7.684635, 0.0 ], [ 110.211982, -7.684451, 0.0 ], [ 110.212032, -7.684419, 0.0 ], [ 110.21211, -7.68438, 0.0 ], [ 110.212186000000102, -7.684328999999892, 0.0 ], [ 110.212249, -7.68432, 0.0 ], [ 110.212298, -7.684319, 0.0 ], [ 110.212392, -7.684299, 0.0 ], [ 110.21242, -7.684284999999893, 0.0 ], [ 110.2125, -7.684234, 0.0 ], [ 110.212582, -7.684177, 0.0 ], [ 110.212696, -7.684112, 0.0 ], [ 110.212797000000123, -7.684095, 0.0 ], [ 110.212901, -7.684081, 0.0 ], [ 110.212974999000011, -7.684047, 0.0 ], [ 110.213113, -7.683947999999898, 0.0 ], [ 110.213268, -7.68380300099998, 0.0 ], [ 110.213383000000107, -7.683682, 0.0 ], [ 110.213434, -7.68361300099998, 0.0 ], [ 110.213479, -7.683507, 0.0 ], [ 110.213486, -7.683212, 0.0 ], [ 110.213508, -7.683114999999898, 0.0 ], [ 110.213571, -7.682993, 0.0 ], [ 110.213692001000098, -7.682775000999921, 0.0 ], [ 110.213721, -7.682711, 0.0 ], [ 110.213792999000106, -7.682487, 0.0 ], [ 110.213838, -7.682436000999939, 0.0 ], [ 110.214049, -7.682544, 0.0 ], [ 110.214156, -7.682551, 0.0 ], [ 110.214498999000071, -7.682544, 0.0 ], [ 110.214584, -7.682573999999899, 0.0 ], [ 110.214634999000054, -7.682491, 0.0 ], [ 110.214863, -7.68211100099996, 0.0 ], [ 110.214936, -7.681974001, 0.0 ], [ 110.21506, -7.681738, 0.0 ], [ 110.215175, -7.68144, 0.0 ], [ 110.215199999000077, -7.681007, 0.0 ], [ 110.215072, -7.680141, 0.0 ], [ 110.215027, -7.679833, 0.0 ], [ 110.215040999000067, -7.67967, 0.0 ], [ 110.215141, -7.679456, 0.0 ], [ 110.215182999, -7.67941, 0.0 ], [ 110.215238, -7.679387, 0.0 ], [ 110.215386000000109, -7.679266, 0.0 ], [ 110.215458000000112, -7.678949, 0.0 ], [ 110.215494, -7.67881, 0.0 ], [ 110.215635000000105, -7.678478, 0.0 ], [ 110.215678000000111, -7.678311000999962, 0.0 ], [ 110.21564899900001, -7.678155998999927, 0.0 ], [ 110.215556, -7.678014001, 0.0 ], [ 110.215441, -7.677878, 0.0 ], [ 110.215407, -7.677726000999964, 0.0 ], [ 110.215405001000079, -7.677719, 0.0 ], [ 110.215328, -7.677410000999931, 0.0 ], [ 110.215236999000027, -7.677306, 0.0 ], [ 110.215077, -7.677292000999937, 0.0 ], [ 110.214912, -7.677072000999942, 0.0 ], [ 110.214807999000058, -7.676972, 0.0 ], [ 110.214690999000069, -7.676933, 0.0 ], [ 110.214655, -7.676921, 0.0 ], [ 110.214551000000114, -7.676898, 0.0 ], [ 110.214046999000075, -7.676523, 0.0 ], [ 110.213952, -7.676434001, 0.0 ], [ 110.213893999000021, -7.676263998999968, 0.0 ], [ 110.213789, -7.67586, 0.0 ], [ 110.213721, -7.675637, 0.0 ], [ 110.213708, -7.675484, 0.0 ], [ 110.213783, -7.675266, 0.0 ], [ 110.213923000000108, -7.67495500099993, 0.0 ], [ 110.213951999000116, -7.674807, 0.0 ], [ 110.213933, -7.674556, 0.0 ], [ 110.213884, -7.674421, 0.0 ], [ 110.213717999000025, -7.674047, 0.0 ], [ 110.213533, -7.673698, 0.0 ], [ 110.213398, -7.673413000999975, 0.0 ], [ 110.213262, -7.672813, 0.0 ], [ 110.213190999000034, -7.672581998999963, 0.0 ], [ 110.213145, -7.672503, 0.0 ], [ 110.212662999000131, -7.672051000999904, 0.0 ], [ 110.212112001000023, -7.671551, 0.0 ], [ 110.212063, -7.671496999999896, 0.0 ], [ 110.211920001000024, -7.671213, 0.0 ], [ 110.211796, -7.670955001, 0.0 ], [ 110.211673000000104, -7.670639, 0.0 ], [ 110.211563, -7.670355, 0.0 ], [ 110.211443, -7.670145, 0.0 ], [ 110.211374, -7.670043, 0.0 ], [ 110.21102, -7.669787000999985, 0.0 ], [ 110.210951, -7.66971, 0.0 ], [ 110.21088400100011, -7.669542, 0.0 ], [ 110.210881000000128, -7.66916, 0.0 ], [ 110.210953, -7.668683, 0.0 ], [ 110.210968, -7.66854100099992, 0.0 ], [ 110.21091, -7.668388, 0.0 ], [ 110.210907, -7.668381, 0.0 ], [ 110.210925999000025, -7.668136, 0.0 ], [ 110.210969, -7.667883, 0.0 ], [ 110.211013, -7.667481, 0.0 ], [ 110.211014, -7.667472, 0.0 ], [ 110.211027, -7.667126, 0.0 ], [ 110.210863, -7.666922, 0.0 ], [ 110.21079, -7.66677, 0.0 ], [ 110.210772999000071, -7.666629998999987, 0.0 ], [ 110.210766, -7.6664690009999, 0.0 ], [ 110.21071299900008, -7.666296000999974, 0.0 ], [ 110.210673, -7.666146, 0.0 ], [ 110.2106670000001, -7.666114, 0.0 ], [ 110.210625, -7.665927999, 0.0 ], [ 110.210577999000108, -7.66586, 0.0 ], [ 110.210518, -7.665796, 0.0 ], [ 110.210453, -7.665663, 0.0 ], [ 110.210387000000111, -7.665502, 0.0 ], [ 110.210311, -7.665319, 0.0 ], [ 110.210233, -7.665088, 0.0 ], [ 110.210173, -7.664958, 0.0 ], [ 110.210050000000109, -7.664693, 0.0 ], [ 110.210674999000048, -7.665415, 0.0 ], [ 110.211143, -7.665905000999953, 0.0 ], [ 110.211872, -7.666613, 0.0 ], [ 110.212789, -7.667433, 0.0 ], [ 110.213495, -7.668013, 0.0 ], [ 110.214406, -7.668661, 0.0 ], [ 110.215317, -7.669249, 0.0 ], [ 110.216593001000049, -7.669986, 0.0 ], [ 110.217614001000058, -7.670504, 0.0 ], [ 110.218551, -7.670762000999922, 0.0 ], [ 110.219431, -7.670941, 0.0 ], [ 110.220375, -7.671077, 0.0 ], [ 110.221437, -7.67124, 0.0 ], [ 110.22346, -7.671472, 0.0 ], [ 110.224769, -7.671617, 0.0 ], [ 110.226114, -7.671681, 0.0 ], [ 110.226809, -7.671695000999936, 0.0 ], [ 110.226828000000111, -7.671744999999898, 0.0 ], [ 110.22682699900011, -7.671785, 0.0 ] ] ] ] } },
{ "type": "Feature", "properties": { "NAMOBJ": "Banjarharjo", "WADMKC": "Kalibawang", "WADMKK": "Kabupaten Kulonprogo", "WADMPR": "Daerah Istimewa Yogyakarta" }, "geometry": { "type": "MultiPolygon", "coordinates": [ [ [ [ 110.262954721000085, -7.680125695999919, 0.0 ], [ 110.263008109000054, -7.680356007999968, 0.0 ], [ 110.263010562118126, -7.680361873319576, 0.0 ], [ 110.263034, -7.680465, 0.0 ], [ 110.26306, -7.680483, 0.0 ], [ 110.263087553313227, -7.680501249597029, 0.0 ], [ 110.263214120000143, -7.680586295999927, 0.0 ], [ 110.263648993000146, -7.680689300999923, 0.0 ], [ 110.264030452, -7.680817574999967, 0.0 ], [ 110.264236463000088, -7.680971598999921, 0.0 ], [ 110.264389061000188, -7.681227178999929, 0.0 ], [ 110.264465348000101, -7.681508509999937, 0.0 ], [ 110.264486044478943, -7.681751076937406, 0.0 ], [ 110.264494, -7.681865, 0.0 ], [ 110.264434837111708, -7.68204134044548, 0.0 ], [ 110.264389061000188, -7.682172750999918, 0.0 ], [ 110.264183050000014, -7.682555636999979, 0.0 ], [ 110.263771773772362, -7.682810310059509, 0.0 ], [ 110.263415, -7.68286, 0.0 ], [ 110.263056, -7.682936, 0.0 ], [ 110.263054509291138, -7.682936987359003, 0.0 ], [ 110.263053882000023, -7.682937119999924, 0.0 ], [ 110.263009929431689, -7.682966514471847, 0.0 ], [ 110.262825, -7.683089000999967, 0.0 ], [ 110.262689111743981, -7.683223831231214, 0.0 ], [ 110.262565621000036, -7.683345272999944, 0.0 ], [ 110.262093454418746, -7.683831065596049, 0.0 ], [ 110.261772000000107, -7.684161000999936, 0.0 ], [ 110.261656070296041, -7.684276177662721, 0.0 ], [ 110.261306752000152, -7.68462084999997, 0.0 ], [ 110.261100764999981, -7.684927448999936, 0.0 ], [ 110.260992648297375, -7.685242115111325, 0.0 ], [ 110.260924, -7.685437, 0.0 ], [ 110.260876180129287, -7.685626119875845, 0.0 ], [ 110.260765078, -7.686051345999935, 0.0 ], [ 110.260818491000165, -7.686460466999947, 0.0 ], [ 110.260917677000108, -7.686869103999918, 0.0 ], [ 110.261093492987925, -7.687139748729479, 0.0 ], [ 110.2611, -7.68715, 0.0 ], [ 110.261102899597105, -7.687153760414802, 0.0 ], [ 110.261352549000037, -7.68748326799993, 0.0 ], [ 110.261711134000123, -7.687739814999929, 0.0 ], [ 110.262046821000098, -7.687868088999974, 0.0 ], [ 110.262405382000011, -7.687945342999882, 0.0 ], [ 110.262870793000062, -7.687894806999875, 0.0 ], [ 110.263229347671441, -7.687946764605027, 0.0 ], [ 110.263432, -7.688099, 0.0 ], [ 110.263585, -7.688304, 0.0 ], [ 110.263659908987293, -7.688453452564794, 0.0 ], [ 110.263786333000141, -7.688714498999929, 0.0 ], [ 110.263992320000042, -7.68912361999994, 0.0 ], [ 110.264036836026563, -7.689294184027908, 0.0 ], [ 110.264045, -7.689326999999892, 0.0 ], [ 110.264045512252167, -7.689327427156424, 0.0 ], [ 110.264045709000115, -7.689328181, 0.0 ], [ 110.264350881000141, -7.689584219999947, 0.0 ], [ 110.265014662999988, -7.690122096999954, 0.0 ], [ 110.265556337000049, -7.690608471999962, 0.0 ], [ 110.265785222000062, -7.691018075999924, 0.0 ], [ 110.265800589817758, -7.691106289684459, 0.0 ], [ 110.265836, -7.691323, 0.0 ], [ 110.265861000000115, -7.691835, 0.0 ], [ 110.265856640108652, -7.691950456385356, 0.0 ], [ 110.265830994000211, -7.692551118999937, 0.0 ], [ 110.265809316940334, -7.692986700288397, 0.0 ], [ 110.265808, -7.69301, 0.0 ], [ 110.265808132138659, -7.693010507826472, 0.0 ], [ 110.265808096, -7.693011233999904, 0.0 ], [ 110.265960718000017, -7.693599211999882, 0.0 ], [ 110.266045822195181, -7.693778870857273, 0.0 ], [ 110.266165, -7.694032999999891, 0.0 ], [ 110.26637, -7.694187, 0.0 ], [ 110.266416548104175, -7.694208698204676, 0.0 ], [ 110.266754151000029, -7.694367377999935, 0.0 ], [ 110.267036449000116, -7.694623440999894, 0.0 ], [ 110.267265334000143, -7.694853752999943, 0.0 ], [ 110.26749422000016, -7.69516083499995, 0.0 ], [ 110.267671332921196, -7.695463636982282, 0.0 ], [ 110.26788, -7.695825, 0.0 ], [ 110.268391000000108, -7.696695, 0.0 ], [ 110.268521722504133, -7.696956445008187, 0.0 ], [ 110.268669136000113, -7.697258448999957, 0.0 ], [ 110.268745423000126, -7.697667569999879, 0.0 ], [ 110.268679618219835, -7.6979048334358, 0.0 ], [ 110.268645, -7.698024, 0.0 ], [ 110.26844, -7.698433, 0.0 ], [ 110.268416995842827, -7.698511744999649, 0.0 ], [ 110.268386862000028, -7.698612681999919, 0.0 ], [ 110.268416757078981, -7.698798767373251, 0.0 ], [ 110.268439, -7.698944000999976, 0.0 ], [ 110.268502229660882, -7.699116638932015, 0.0 ], [ 110.268615723000138, -7.699430923999941, 0.0 ], [ 110.268786067802495, -7.699755404595489, 0.0 ], [ 110.268949, -7.700068999999889, 0.0 ], [ 110.269378, -7.700666, 0.0 ], [ 110.269410123823135, -7.700713580296672, 0.0 ], [ 110.269828795000052, -7.701334906999914, 0.0 ], [ 110.270378110000124, -7.702192270999976, 0.0 ], [ 110.270568863000094, -7.70261333699991, 0.0 ], [ 110.270675142538778, -7.702873684749314, 0.0 ], [ 110.270728000000119, -7.703004, 0.0 ], [ 110.270887, -7.703774, 0.0 ], [ 110.270886, -7.70434, 0.0 ], [ 110.270813000000132, -7.704717, 0.0 ], [ 110.270772260471489, -7.704788458447311, 0.0 ], [ 110.270561223000172, -7.705152955999985, 0.0 ], [ 110.270431523000013, -7.705471982999914, 0.0 ], [ 110.270432812263991, -7.705473873805204, 0.0 ], [ 110.27042, -7.70567, 0.0 ], [ 110.269829189000092, -7.70611219799995, 0.0 ], [ 110.269044275000155, -7.706741026999932, 0.0 ], [ 110.26860179015469, -7.707107341503374, 0.0 ], [ 110.268559193676879, -7.707120666017399, 0.0 ], [ 110.267652819000133, -7.707192368999884, 0.0 ], [ 110.26674307800009, -7.706888331999952, 0.0 ], [ 110.264848008000143, -7.706128883999909, 0.0 ], [ 110.262883535000057, -7.705374384999921, 0.0 ], [ 110.261250001000164, -7.705583330999978, 0.0 ], [ 110.260444768000156, -7.70549794099993, 0.0 ], [ 110.259105795000124, -7.705450386999903, 0.0 ], [ 110.257388889, -7.705555552999989, 0.0 ], [ 110.256998586000122, -7.705835684999986, 0.0 ], [ 110.256000738000154, -7.706087211999925, 0.0 ], [ 110.255446090748123, -7.706173356877201, 0.0 ], [ 110.255399153000027, -7.706180646999929, 0.0 ], [ 110.254689325000101, -7.707238087999936, 0.0 ], [ 110.25454139300011, -7.707475076999916, 0.0 ], [ 110.253686827553793, -7.708244295387303, 0.0 ], [ 110.253588438994456, -7.708280142381831, 0.0 ], [ 110.252488609247351, -7.708526662043848, 0.0 ], [ 110.252265, -7.708553, 0.0 ], [ 110.252128978556442, -7.708549295936386, 0.0 ], [ 110.251172592000088, -7.708441869999973, 0.0 ], [ 110.251108642226257, -7.708438522790352, 0.0 ], [ 110.250993, -7.708416, 0.0 ], [ 110.250755, -7.708416, 0.0 ], [ 110.250399, -7.708397999999896, 0.0 ], [ 110.250389840270174, -7.708400899813885, 0.0 ], [ 110.250161840000032, -7.708388965999948, 0.0 ], [ 110.25, -7.708473915345728, 0.0 ], [ 110.249868420141581, -7.708542981231094, 0.0 ], [ 110.24954, -7.708590000999973, 0.0 ], [ 110.249215, -7.708289, 0.0 ], [ 110.248479, -7.707861, 0.0 ], [ 110.247891, -7.7075790009999, 0.0 ], [ 110.247261999000088, -7.707351, 0.0 ], [ 110.246566, -7.707163, 0.0 ], [ 110.245946, -7.707087, 0.0 ], [ 110.245835, -7.707346, 0.0 ], [ 110.245511, -7.707769000999988, 0.0 ], [ 110.245474, -7.707792, 0.0 ], [ 110.2454, -7.707728, 0.0 ], [ 110.245369, -7.707584, 0.0 ], [ 110.245327999000025, -7.707422, 0.0 ], [ 110.245233, -7.707228001, 0.0 ], [ 110.245154000000113, -7.707158, 0.0 ], [ 110.244728, -7.707141, 0.0 ], [ 110.244466001000035, -7.707119, 0.0 ], [ 110.244332999000036, -7.70704, 0.0 ], [ 110.244233, -7.706953, 0.0 ], [ 110.244206000000105, -7.70693900099997, 0.0 ], [ 110.244164, -7.70692, 0.0 ], [ 110.243929999000088, -7.706868, 0.0 ], [ 110.243719, -7.706828, 0.0 ], [ 110.243526, -7.7067, 0.0 ], [ 110.243291, -7.706567, 0.0 ], [ 110.243220001000054, -7.706517, 0.0 ], [ 110.243181, -7.706439999999894, 0.0 ], [ 110.243123000000111, -7.706357, 0.0 ], [ 110.243, -7.706181, 0.0 ], [ 110.242778, -7.705839, 0.0 ], [ 110.242512, -7.705431000999987, 0.0 ], [ 110.242527, -7.70537, 0.0 ], [ 110.242532, -7.704927, 0.0 ], [ 110.24256, -7.704797, 0.0 ], [ 110.242632, -7.704588, 0.0 ], [ 110.242638, -7.704537000999913, 0.0 ], [ 110.242584, -7.704511, 0.0 ], [ 110.242517, -7.704556, 0.0 ], [ 110.242439001, -7.704609, 0.0 ], [ 110.242534, -7.704424, 0.0 ], [ 110.24255700100008, -7.70411200099992, 0.0 ], [ 110.242511, -7.703927, 0.0 ], [ 110.242245999000019, -7.703464, 0.0 ], [ 110.242132999, -7.703315998999962, 0.0 ], [ 110.24194, -7.703145, 0.0 ], [ 110.241779000000108, -7.702986, 0.0 ], [ 110.241751, -7.702957, 0.0 ], [ 110.241290999000057, -7.70261, 0.0 ], [ 110.241276, -7.702622, 0.0 ], [ 110.241232999000047, -7.702677, 0.0 ], [ 110.241131001000042, -7.70281, 0.0 ], [ 110.241089, -7.702857, 0.0 ], [ 110.240998999000055, -7.702936, 0.0 ], [ 110.240984, -7.702949, 0.0 ], [ 110.240889, -7.702994, 0.0 ], [ 110.240739000000119, -7.703042, 0.0 ], [ 110.240404000000112, -7.703148, 0.0 ], [ 110.240392, -7.703147, 0.0 ], [ 110.240289000000104, -7.703118, 0.0 ], [ 110.239976, -7.70299, 0.0 ], [ 110.239853, -7.702926, 0.0 ], [ 110.239690001000014, -7.702822000999944, 0.0 ], [ 110.239692, -7.702624000999904, 0.0 ], [ 110.239598, -7.702312000999935, 0.0 ], [ 110.239627, -7.702022000999921, 0.0 ], [ 110.239708, -7.701754, 0.0 ], [ 110.239874999000037, -7.701515000999983, 0.0 ], [ 110.240021, -7.701283000999972, 0.0 ], [ 110.240334999000083, -7.700652999999893, 0.0 ], [ 110.240657, -7.699935001, 0.0 ], [ 110.240848, -7.699504000999948, 0.0 ], [ 110.240822, -7.699103998999892, 0.0 ], [ 110.240742, -7.698757, 0.0 ], [ 110.240568999000089, -7.698449, 0.0 ], [ 110.240342, -7.697995, 0.0 ], [ 110.240141999000016, -7.697394, 0.0 ], [ 110.240076, -7.696887, 0.0 ], [ 110.240117001000087, -7.696513, 0.0 ], [ 110.240251, -7.696166, 0.0 ], [ 110.24048, -7.695766, 0.0 ], [ 110.240829000000105, -7.695326, 0.0 ], [ 110.241204, -7.69486, 0.0 ], [ 110.24146, -7.694179000999981, 0.0 ], [ 110.241527999000127, -7.693499, 0.0 ], [ 110.24144899900007, -7.693045, 0.0 ], [ 110.241276, -7.692457, 0.0 ], [ 110.240781001000045, -7.691856, 0.0 ], [ 110.239578, -7.690665, 0.0 ], [ 110.239527, -7.69052, 0.0 ], [ 110.23945100000013, -7.690553, 0.0 ], [ 110.239336, -7.690546, 0.0 ], [ 110.239265, -7.690502998999939, 0.0 ], [ 110.23921, -7.69039, 0.0 ], [ 110.23908, -7.690253, 0.0 ], [ 110.238912000000127, -7.690147000999971, 0.0 ], [ 110.238784, -7.690073998999971, 0.0 ], [ 110.238778, -7.690069, 0.0 ], [ 110.238600999000056, -7.689968, 0.0 ], [ 110.238385, -7.689891, 0.0 ], [ 110.238151, -7.689814, 0.0 ], [ 110.23814, -7.68981, 0.0 ], [ 110.238051, -7.689741, 0.0 ], [ 110.238025, -7.689697, 0.0 ], [ 110.237518, -7.68942, 0.0 ], [ 110.23705, -7.689246, 0.0 ], [ 110.236461, -7.689125, 0.0 ], [ 110.236231, -7.689106, 0.0 ], [ 110.235964001000099, -7.689071000999938, 0.0 ], [ 110.235790001000083, -7.689057, 0.0 ], [ 110.235654, -7.689005, 0.0 ], [ 110.235453, -7.688706999000019, 0.0 ], [ 110.235359, -7.688345, 0.0 ], [ 110.235341, -7.688276000999974, 0.0 ], [ 110.235287000000127, -7.688125, 0.0 ], [ 110.235191999000079, -7.687907, 0.0 ], [ 110.235151, -7.687864001, 0.0 ], [ 110.235098, -7.687811, 0.0 ], [ 110.234961, -7.68749, 0.0 ], [ 110.234919, -7.687436, 0.0 ], [ 110.234604, -7.686879, 0.0 ], [ 110.23431, -7.686358, 0.0 ], [ 110.234095, -7.685821998999966, 0.0 ], [ 110.234093999, -7.685764, 0.0 ], [ 110.234052, -7.685564, 0.0 ], [ 110.23397, -7.685375, 0.0 ], [ 110.233921, -7.685262, 0.0 ], [ 110.233907, -7.685217, 0.0 ], [ 110.233881, -7.685134000999973, 0.0 ], [ 110.23374200100001, -7.684943, 0.0 ], [ 110.233756, -7.684620999999893, 0.0 ], [ 110.233729, -7.68453, 0.0 ], [ 110.233517, -7.684231, 0.0 ], [ 110.233179, -7.683838, 0.0 ], [ 110.233169000000117, -7.683823, 0.0 ], [ 110.23311, -7.683696998999913, 0.0 ], [ 110.233095, -7.683515, 0.0 ], [ 110.233137001000046, -7.683162, 0.0 ], [ 110.233176001000075, -7.682828000999955, 0.0 ], [ 110.23314, -7.682646, 0.0 ], [ 110.233075, -7.682456, 0.0 ], [ 110.233005, -7.68225, 0.0 ], [ 110.232817, -7.682315, 0.0 ], [ 110.232638, -7.682428, 0.0 ], [ 110.232564, -7.682447, 0.0 ], [ 110.232500000000101, -7.682398, 0.0 ], [ 110.232123999000081, -7.682075, 0.0 ], [ 110.232010999000053, -7.682003, 0.0 ], [ 110.231773999000069, -7.68198600099992, 0.0 ], [ 110.231625, -7.682027000999938, 0.0 ], [ 110.231493, -7.682139, 0.0 ], [ 110.231472, -7.682157, 0.0 ], [ 110.231438001000072, -7.682190001000013, 0.0 ], [ 110.231335, -7.682129, 0.0 ], [ 110.231247, -7.681996, 0.0 ], [ 110.231134, -7.681880998999937, 0.0 ], [ 110.231077999000036, -7.68181700099997, 0.0 ], [ 110.231046, -7.681620000999924, 0.0 ], [ 110.231045, -7.681467000999966, 0.0 ], [ 110.231044, -7.68114, 0.0 ], [ 110.23102, -7.680975, 0.0 ], [ 110.230892, -7.680656, 0.0 ], [ 110.230827, -7.68056, 0.0 ], [ 110.230784, -7.68047, 0.0 ], [ 110.230767, -7.680335000999918, 0.0 ], [ 110.230766, -7.680264998999988, 0.0 ], [ 110.230861, -7.680118, 0.0 ], [ 110.230894, -7.679954, 0.0 ], [ 110.230876999000103, -7.679786, 0.0 ], [ 110.230699, -7.679428, 0.0 ], [ 110.230688, -7.679403, 0.0 ], [ 110.230247000000119, -7.67897, 0.0 ], [ 110.229887, -7.678612, 0.0 ], [ 110.229682001000086, -7.678279, 0.0 ], [ 110.229505, -7.678042, 0.0 ], [ 110.229394, -7.677940001, 0.0 ], [ 110.229353001000035, -7.677919000999946, 0.0 ], [ 110.228938, -7.677832, 0.0 ], [ 110.228892999000081, -7.677829, 0.0 ], [ 110.228782, -7.677698, 0.0 ], [ 110.228595, -7.677497, 0.0 ], [ 110.228489, -7.677163998999916, 0.0 ], [ 110.228436, -7.676869998999926, 0.0 ], [ 110.228449, -7.676686, 0.0 ], [ 110.228458999000054, -7.676686000999979, 0.0 ], [ 110.228574, -7.676603, 0.0 ], [ 110.228655999000097, -7.676503, 0.0 ], [ 110.228686, -7.676467, 0.0 ], [ 110.228717, -7.67643900099997, 0.0 ], [ 110.228837, -7.676374, 0.0 ], [ 110.228839, -7.676187, 0.0 ], [ 110.228839, -7.676126, 0.0 ], [ 110.228819, -7.675868, 0.0 ], [ 110.228815, -7.675850001, 0.0 ], [ 110.228773, -7.675646, 0.0 ], [ 110.22871400000011, -7.67551, 0.0 ], [ 110.228627000000102, -7.675299, 0.0 ], [ 110.228508, -7.675053000999956, 0.0 ], [ 110.228365, -7.674833, 0.0 ], [ 110.228336, -7.674799000999901, 0.0 ], [ 110.228277, -7.674746, 0.0 ], [ 110.228236, -7.674734, 0.0 ], [ 110.228034, -7.674722000999925, 0.0 ], [ 110.227988, -7.674658, 0.0 ], [ 110.227990999000056, -7.674443, 0.0 ], [ 110.228028, -7.674255999, 0.0 ], [ 110.228045001000083, -7.673823, 0.0 ], [ 110.228025, -7.673611000999927, 0.0 ], [ 110.228013999000012, -7.673578, 0.0 ], [ 110.227923, -7.673410999999899, 0.0 ], [ 110.227805, -7.673233, 0.0 ], [ 110.22773, -7.673055, 0.0 ], [ 110.227674, -7.672636998999984, 0.0 ], [ 110.227385001000101, -7.672307, 0.0 ], [ 110.227124, -7.672008, 0.0 ], [ 110.226956999000038, -7.671999, 0.0 ], [ 110.226957999000035, -7.671973, 0.0 ], [ 110.226974001000116, -7.671947, 0.0 ], [ 110.226826, -7.67183, 0.0 ], [ 110.226812, -7.671819, 0.0 ], [ 110.22682699900011, -7.671785, 0.0 ], [ 110.226828000000111, -7.671744999999898, 0.0 ], [ 110.226809, -7.671695000999936, 0.0 ], [ 110.226869, -7.671638, 0.0 ], [ 110.226872000000114, -7.671484000999975, 0.0 ], [ 110.226822, -7.671358, 0.0 ], [ 110.226661, -7.671119998999966, 0.0 ], [ 110.226612, -7.671058, 0.0 ], [ 110.226608, -7.670859000999954, 0.0 ], [ 110.226688, -7.67068, 0.0 ], [ 110.226859, -7.670557, 0.0 ], [ 110.2271, -7.670488, 0.0 ], [ 110.227354, -7.670489000999982, 0.0 ], [ 110.227591, -7.670518, 0.0 ], [ 110.227902, -7.670644, 0.0 ], [ 110.228324, -7.670817, 0.0 ], [ 110.228798, -7.67092, 0.0 ], [ 110.230032001, -7.671094, 0.0 ], [ 110.23006, -7.671094000999947, 0.0 ], [ 110.2302, -7.671093, 0.0 ], [ 110.230351, -7.671099, 0.0 ], [ 110.230552, -7.671119, 0.0 ], [ 110.230733, -7.671125, 0.0 ], [ 110.230763, -7.671125, 0.0 ], [ 110.23097499900004, -7.671135, 0.0 ], [ 110.23105, -7.67115200099995, 0.0 ], [ 110.231229, -7.671224, 0.0 ], [ 110.231455, -7.671306, 0.0 ], [ 110.231516, -7.671332, 0.0 ], [ 110.231761, -7.67146, 0.0 ], [ 110.231988999000095, -7.671586, 0.0 ], [ 110.232142, -7.671701998999893, 0.0 ], [ 110.232151, -7.671804, 0.0 ], [ 110.232276, -7.671732, 0.0 ], [ 110.232359, -7.671700999999899, 0.0 ], [ 110.232492, -7.671611, 0.0 ], [ 110.232582, -7.671509999, 0.0 ], [ 110.232785, -7.671114, 0.0 ], [ 110.232921, -7.670934, 0.0 ], [ 110.23321, -7.670616, 0.0 ], [ 110.233315, -7.670536, 0.0 ], [ 110.233557, -7.670406, 0.0 ], [ 110.233867, -7.670256000999888, 0.0 ], [ 110.234173, -7.670127, 0.0 ], [ 110.234284, -7.670146, 0.0 ], [ 110.234475, -7.670219, 0.0 ], [ 110.23452, -7.670216, 0.0 ], [ 110.23456, -7.670113, 0.0 ], [ 110.234611, -7.670128, 0.0 ], [ 110.234582, -7.670039, 0.0 ], [ 110.234609, -7.669946998999901, 0.0 ], [ 110.234637, -7.669824, 0.0 ], [ 110.234608, -7.669695, 0.0 ], [ 110.234604999000098, -7.669670000999897, 0.0 ], [ 110.234797999000079, -7.669583999999887, 0.0 ], [ 110.235061, -7.669469, 0.0 ], [ 110.235105, -7.669449, 0.0 ], [ 110.235124, -7.669139, 0.0 ], [ 110.235393, -7.668942, 0.0 ], [ 110.235805, -7.66881, 0.0 ], [ 110.236225, -7.668758, 0.0 ], [ 110.236573999000115, -7.668769000999955, 0.0 ], [ 110.237563, -7.668896, 0.0 ], [ 110.238009001000108, -7.668876, 0.0 ], [ 110.238324, -7.668775, 0.0 ], [ 110.239321, -7.668225, 0.0 ], [ 110.240312, -7.667782, 0.0 ], [ 110.240807, -7.667682000999989, 0.0 ], [ 110.241213999000081, -7.667665, 0.0 ], [ 110.241471, -7.667675, 0.0 ], [ 110.242451000000102, -7.667952, 0.0 ], [ 110.242973, -7.667985, 0.0 ], [ 110.243758, -7.668002, 0.0 ], [ 110.244183, -7.667954000999934, 0.0 ], [ 110.244387, -7.667906, 0.0 ], [ 110.244436, -7.667783998999901, 0.0 ], [ 110.244657000000117, -7.667564, 0.0 ], [ 110.244829, -7.667491, 0.0 ], [ 110.245326999000042, -7.667598, 0.0 ], [ 110.245646, -7.667647, 0.0 ], [ 110.245800999, -7.667680000999912, 0.0 ], [ 110.246169, -7.667681000999906, 0.0 ], [ 110.246716, -7.667674, 0.0 ], [ 110.247263, -7.667756, 0.0 ], [ 110.247794, -7.667814, 0.0 ], [ 110.248089, -7.66779, 0.0 ], [ 110.248326000000105, -7.667766, 0.0 ], [ 110.248522, -7.66775, 0.0 ], [ 110.248521, -7.668255, 0.0 ], [ 110.248553, -7.668516000999983, 0.0 ], [ 110.248594, -7.668687, 0.0 ], [ 110.248846, -7.669144, 0.0 ], [ 110.248871001000083, -7.66923, 0.0 ], [ 110.248977, -7.669478999, 0.0 ], [ 110.249084, -7.669718, 0.0 ], [ 110.249226001000054, -7.669874, 0.0 ], [ 110.249609, -7.670184, 0.0 ], [ 110.249796, -7.670338, 0.0 ], [ 110.25, -7.670437511999985, 0.0 ], [ 110.250001, -7.670438, 0.0 ], [ 110.250928, -7.670786, 0.0 ], [ 110.251019, -7.670841000999886, 0.0 ], [ 110.251478, -7.671079, 0.0 ], [ 110.251871, -7.67123, 0.0 ], [ 110.252176, -7.671391, 0.0 ], [ 110.252264, -7.671437, 0.0 ], [ 110.252549, -7.671577, 0.0 ], [ 110.252636, -7.67162, 0.0 ], [ 110.252475, -7.672166, 0.0 ], [ 110.252449, -7.672388, 0.0 ], [ 110.25248, -7.672652, 0.0 ], [ 110.252636, -7.67274, 0.0 ], [ 110.252801, -7.672763, 0.0 ], [ 110.253404, -7.672801, 0.0 ], [ 110.253575, -7.672806, 0.0 ], [ 110.253617000000105, -7.672843, 0.0 ], [ 110.253858, -7.673079, 0.0 ], [ 110.254055, -7.673247, 0.0 ], [ 110.25442, -7.673476, 0.0 ], [ 110.254953, -7.673771, 0.0 ], [ 110.255159, -7.673964, 0.0 ], [ 110.255217, -7.673997999999884, 0.0 ], [ 110.255271, -7.674031, 0.0 ], [ 110.255386, -7.674044, 0.0 ], [ 110.25545, -7.674051, 0.0 ], [ 110.255834, -7.674094, 0.0 ], [ 110.255936, -7.674097, 0.0 ], [ 110.25665, -7.674121, 0.0 ], [ 110.257591, -7.674193, 0.0 ], [ 110.258426, -7.674347, 0.0 ], [ 110.258929, -7.674434, 0.0 ], [ 110.259595, -7.674531, 0.0 ], [ 110.259783000000112, -7.674832, 0.0 ], [ 110.259801, -7.674967, 0.0 ], [ 110.259835, -7.675229000999952, 0.0 ], [ 110.259918, -7.675285, 0.0 ], [ 110.260028, -7.675334, 0.0 ], [ 110.260728, -7.675634, 0.0 ], [ 110.260841, -7.675682, 0.0 ], [ 110.260901, -7.675696, 0.0 ], [ 110.260914, -7.675699, 0.0 ], [ 110.261021, -7.67572, 0.0 ], [ 110.26113, -7.675742, 0.0 ], [ 110.261152, -7.675749, 0.0 ], [ 110.261369, -7.67585, 0.0 ], [ 110.261727000000107, -7.676028, 0.0 ], [ 110.262263, -7.676296, 0.0 ], [ 110.262042, -7.676506, 0.0 ], [ 110.261957, -7.676655, 0.0 ], [ 110.261769, -7.6771, 0.0 ], [ 110.261456, -7.677838, 0.0 ], [ 110.261338, -7.678068, 0.0 ], [ 110.261212, -7.678346, 0.0 ], [ 110.260983, -7.678859, 0.0 ], [ 110.261127, -7.679066, 0.0 ], [ 110.261381, -7.679283, 0.0 ], [ 110.261595, -7.679393, 0.0 ], [ 110.261891, -7.679508, 0.0 ], [ 110.262983000000119, -7.679802, 0.0 ], [ 110.262972594140564, -7.679936444120951, 0.0 ], [ 110.262954721000085, -7.680125695999919, 0.0 ] ] ] ] } },
{ "type": "Feature", "properties": { "NAMOBJ": "Banjararum", "WADMKC": "Kalibawang", "WADMKK": "Kabupaten Kulonprogo", "WADMPR": "Daerah Istimewa Yogyakarta" }, "geometry": { "type": "MultiPolygon", "coordinates": [ [ [ [ 110.232845602012617, -7.713399621726282, 0.0 ], [ 110.232457003, -7.713450750999897, 0.0 ], [ 110.231729209, -7.715209379999923, 0.0 ], [ 110.23147027300007, -7.716940371999971, 0.0 ], [ 110.231392004000085, -7.718276173999918, 0.0 ], [ 110.231516248000148, -7.719486305999947, 0.0 ], [ 110.231857458999954, -7.721158846999867, 0.0 ], [ 110.231779824390458, -7.722459609821321, 0.0 ], [ 110.231599659619008, -7.722628665236943, 0.0 ], [ 110.230737360554414, -7.723137736070075, 0.0 ], [ 110.23062800000011, -7.723192, 0.0 ], [ 110.229669880239783, -7.723363718610933, 0.0 ], [ 110.228410089123642, -7.723314266738381, 0.0 ], [ 110.228241947376802, -7.723290014392383, 0.0 ], [ 110.227354632435635, -7.723105315430836, 0.0 ], [ 110.22688, -7.722978, 0.0 ], [ 110.226713308000029, -7.722970956999966, 0.0 ], [ 110.226708102462695, -7.72297073704258, 0.0 ], [ 110.226192174000076, -7.722863343999943, 0.0 ], [ 110.225728679969279, -7.723037604549756, 0.0 ], [ 110.225554999000025, -7.723059, 0.0 ], [ 110.225119512012753, -7.723266634345062, 0.0 ], [ 110.224898052000114, -7.723349896999967, 0.0 ], [ 110.224729187242914, -7.723690577211386, 0.0 ], [ 110.224558999000038, -7.723924, 0.0 ], [ 110.223665, -7.725883, 0.0 ], [ 110.22308300000013, -7.727141, 0.0 ], [ 110.222729, -7.728131, 0.0 ], [ 110.222167, -7.730029, 0.0 ], [ 110.222155966712748, -7.730092993066641, 0.0 ], [ 110.222077189000046, -7.730336355999913, 0.0 ], [ 110.221694294000073, -7.732301755999906, 0.0 ], [ 110.221493456862746, -7.733669714989635, 0.0 ], [ 110.221285786173752, -7.734413037843392, 0.0 ], [ 110.220468648000093, -7.73546908599987, 0.0 ], [ 110.219963884148214, -7.735718778478475, 0.0 ], [ 110.219792, -7.735529998999937, 0.0 ], [ 110.219451, -7.735189, 0.0 ], [ 110.218924999000095, -7.734748000999982, 0.0 ], [ 110.218556, -7.734365, 0.0 ], [ 110.218144999000032, -7.733953, 0.0 ], [ 110.217831999000069, -7.733654000999969, 0.0 ], [ 110.2175060000001, -7.733143000999966, 0.0 ], [ 110.217393, -7.732901, 0.0 ], [ 110.217294, -7.732674, 0.0 ], [ 110.217214423000129, -7.732624437999959, 0.0 ], [ 110.217066, -7.732532, 0.0 ], [ 110.216554000000116, -7.732574, 0.0 ], [ 110.216468999000099, -7.732772000999912, 0.0 ], [ 110.216326, -7.733126, 0.0 ], [ 110.216153999000056, -7.73341, 0.0 ], [ 110.216012, -7.733778, 0.0 ], [ 110.215939999000028, -7.734133, 0.0 ], [ 110.215896001000019, -7.734644000999904, 0.0 ], [ 110.215938, -7.73524, 0.0 ], [ 110.216037, -7.735623001, 0.0 ], [ 110.216107, -7.73602, 0.0 ], [ 110.216206, -7.736361000999949, 0.0 ], [ 110.216177, -7.736645, 0.0 ], [ 110.215992, -7.736743, 0.0 ], [ 110.215694, -7.736541, 0.0 ], [ 110.215653, -7.736471, 0.0 ], [ 110.215609, -7.736291, 0.0 ], [ 110.215573, -7.736251, 0.0 ], [ 110.215443, -7.736222999999899, 0.0 ], [ 110.215178999000031, -7.736301, 0.0 ], [ 110.214912, -7.736392, 0.0 ], [ 110.214746001, -7.736484000999912, 0.0 ], [ 110.214611001000023, -7.736622, 0.0 ], [ 110.214537, -7.736767, 0.0 ], [ 110.214507000000111, -7.736967, 0.0 ], [ 110.21449, -7.737078, 0.0 ], [ 110.214438, -7.737165000999948, 0.0 ], [ 110.214352, -7.7372, 0.0 ], [ 110.214207999000067, -7.737172, 0.0 ], [ 110.213618, -7.736841, 0.0 ], [ 110.213516001000102, -7.736738000999967, 0.0 ], [ 110.213509, -7.736724, 0.0 ], [ 110.213438, -7.736584, 0.0 ], [ 110.213305999000042, -7.736325001, 0.0 ], [ 110.213001000000119, -7.736055000999944, 0.0 ], [ 110.212853, -7.735895, 0.0 ], [ 110.21276, -7.735774000999964, 0.0 ], [ 110.212735001000055, -7.735550999999898, 0.0 ], [ 110.212741, -7.735509000999976, 0.0 ], [ 110.212627, -7.735411, 0.0 ], [ 110.21199500100002, -7.735224, 0.0 ], [ 110.211869, -7.735179, 0.0 ], [ 110.21153299900007, -7.734817, 0.0 ], [ 110.211330001000064, -7.734604, 0.0 ], [ 110.211157001000046, -7.734486000999976, 0.0 ], [ 110.211003999000084, -7.734449, 0.0 ], [ 110.210938607000102, -7.734456913999967, 0.0 ], [ 110.21089244800001, -7.734462500999896, 0.0 ], [ 110.210847, -7.734468, 0.0 ], [ 110.210674999000048, -7.734573998999974, 0.0 ], [ 110.210623, -7.734631, 0.0 ], [ 110.210329, -7.734797, 0.0 ], [ 110.210216, -7.734845000999925, 0.0 ], [ 110.210124000000107, -7.73483, 0.0 ], [ 110.209963000000116, -7.734713, 0.0 ], [ 110.209855, -7.734632000999976, 0.0 ], [ 110.209812128000067, -7.734623256999964, 0.0 ], [ 110.209703, -7.734600999999898, 0.0 ], [ 110.209237, -7.734858, 0.0 ], [ 110.209126, -7.734911, 0.0 ], [ 110.209021999000058, -7.734914, 0.0 ], [ 110.208962, -7.73488, 0.0 ], [ 110.208913, -7.73476, 0.0 ], [ 110.208849, -7.734576998999955, 0.0 ], [ 110.208766, -7.73448, 0.0 ], [ 110.208667, -7.734432000999949, 0.0 ], [ 110.208535, -7.734438, 0.0 ], [ 110.208384000000109, -7.734478, 0.0 ], [ 110.208332999000064, -7.734459, 0.0 ], [ 110.208275, -7.734343, 0.0 ], [ 110.208187, -7.73405, 0.0 ], [ 110.2081230000001, -7.733919, 0.0 ], [ 110.207993, -7.733821, 0.0 ], [ 110.207610999000011, -7.733773000999957, 0.0 ], [ 110.207407, -7.733767999999898, 0.0 ], [ 110.207273421000068, -7.733809210999933, 0.0 ], [ 110.207219, -7.733826, 0.0 ], [ 110.207109, -7.733867, 0.0 ], [ 110.207031, -7.733855, 0.0 ], [ 110.206907, -7.733724999999893, 0.0 ], [ 110.206791001000028, -7.733573000999929, 0.0 ], [ 110.206583999000131, -7.733434, 0.0 ], [ 110.206477, -7.733395, 0.0 ], [ 110.206078, -7.733493, 0.0 ], [ 110.205733, -7.733644, 0.0 ], [ 110.205474, -7.733735, 0.0 ], [ 110.205312, -7.733771, 0.0 ], [ 110.205009000000103, -7.733755, 0.0 ], [ 110.204879000000105, -7.733742, 0.0 ], [ 110.204794282000108, -7.73382528199993, 0.0 ], [ 110.204761001000108, -7.733858, 0.0 ], [ 110.204409, -7.734207, 0.0 ], [ 110.203904001000069, -7.734583, 0.0 ], [ 110.203681000000103, -7.734673999999899, 0.0 ], [ 110.203475001000101, -7.734735, 0.0 ], [ 110.203103001000059, -7.734894, 0.0 ], [ 110.202995, -7.734933, 0.0 ], [ 110.202816, -7.734915, 0.0 ], [ 110.202537001000039, -7.734885000999949, 0.0 ], [ 110.202414, -7.734905, 0.0 ], [ 110.20222, -7.735061998999939, 0.0 ], [ 110.20195, -7.735384, 0.0 ], [ 110.201914, -7.73544, 0.0 ], [ 110.201919, -7.735678, 0.0 ], [ 110.201908, -7.735771, 0.0 ], [ 110.201481, -7.735987, 0.0 ], [ 110.201309001000126, -7.73603, 0.0 ], [ 110.201149, -7.736013, 0.0 ], [ 110.201064000000102, -7.735965, 0.0 ], [ 110.200923, -7.73581, 0.0 ], [ 110.200853, -7.735768, 0.0 ], [ 110.200752, -7.735797, 0.0 ], [ 110.200634, -7.735977000999974, 0.0 ], [ 110.200569, -7.736070000999941, 0.0 ], [ 110.200396999000077, -7.736094000999973, 0.0 ], [ 110.200269, -7.736146, 0.0 ], [ 110.200187, -7.736238, 0.0 ], [ 110.200158, -7.736355, 0.0 ], [ 110.200136001000061, -7.73647299999989, 0.0 ], [ 110.20009, -7.73655, 0.0 ], [ 110.19998899900007, -7.736586, 0.0 ], [ 110.199906, -7.736581000999944, 0.0 ], [ 110.199772, -7.736478000999949, 0.0 ], [ 110.199561, -7.736302, 0.0 ], [ 110.199489, -7.736275, 0.0 ], [ 110.199467579000085, -7.736289762999917, 0.0 ], [ 110.199415001, -7.736326, 0.0 ], [ 110.19941, -7.736333, 0.0 ], [ 110.199265000000111, -7.736647, 0.0 ], [ 110.199206, -7.736791001, 0.0 ], [ 110.199126, -7.736869, 0.0 ], [ 110.198993999000066, -7.736882, 0.0 ], [ 110.198849, -7.736874, 0.0 ], [ 110.198656, -7.736917, 0.0 ], [ 110.198479, -7.737083, 0.0 ], [ 110.198427, -7.737165000999948, 0.0 ], [ 110.198250999000052, -7.737354, 0.0 ], [ 110.198189001000074, -7.737459000999937, 0.0 ], [ 110.1981, -7.737592, 0.0 ], [ 110.197742999000042, -7.737955, 0.0 ], [ 110.197619001000078, -7.737901000999916, 0.0 ], [ 110.197371, -7.737793, 0.0 ], [ 110.197303, -7.737768, 0.0 ], [ 110.197374, -7.73766, 0.0 ], [ 110.1974, -7.737629, 0.0 ], [ 110.197454999000101, -7.737558, 0.0 ], [ 110.197518, -7.737418001, 0.0 ], [ 110.197545, -7.737193, 0.0 ], [ 110.197521, -7.73695, 0.0 ], [ 110.197487, -7.73638, 0.0 ], [ 110.197478, -7.736241, 0.0 ], [ 110.197470999000089, -7.735946, 0.0 ], [ 110.197461, -7.735538, 0.0 ], [ 110.197423000000114, -7.73525, 0.0 ], [ 110.197335, -7.734997, 0.0 ], [ 110.197299, -7.734829, 0.0 ], [ 110.197355, -7.734694, 0.0 ], [ 110.197727999000037, -7.734118001, 0.0 ], [ 110.198222, -7.733636, 0.0 ], [ 110.198426999000048, -7.733431, 0.0 ], [ 110.198461, -7.733305, 0.0 ], [ 110.198536, -7.732681, 0.0 ], [ 110.198513, -7.73268, 0.0 ], [ 110.198364, -7.732672, 0.0 ], [ 110.198025000000101, -7.732684, 0.0 ], [ 110.197766, -7.732533, 0.0 ], [ 110.197553000000127, -7.732399, 0.0 ], [ 110.197384, -7.732342, 0.0 ], [ 110.197051, -7.732052000999936, 0.0 ], [ 110.196961, -7.731900000999971, 0.0 ], [ 110.19696, -7.731777, 0.0 ], [ 110.196981, -7.731666, 0.0 ], [ 110.196905999000066, -7.731573, 0.0 ], [ 110.196736, -7.731508000999955, 0.0 ], [ 110.19653, -7.731431999999884, 0.0 ], [ 110.196372001000015, -7.731307, 0.0 ], [ 110.196301, -7.731184, 0.0 ], [ 110.196236, -7.731058, 0.0 ], [ 110.196157, -7.730997, 0.0 ], [ 110.195941077000072, -7.731095321999916, 0.0 ], [ 110.19593300000011, -7.731099000999954, 0.0 ], [ 110.195844001000026, -7.731136, 0.0 ], [ 110.195641000000109, -7.730889999999892, 0.0 ], [ 110.195572001000087, -7.730655, 0.0 ], [ 110.195539999000104, -7.73058, 0.0 ], [ 110.195258, -7.730575000999941, 0.0 ], [ 110.19511, -7.730558, 0.0 ], [ 110.194635, -7.730363, 0.0 ], [ 110.19446, -7.730344, 0.0 ], [ 110.194353, -7.73032, 0.0 ], [ 110.194247, -7.730199, 0.0 ], [ 110.193826999000038, -7.72985, 0.0 ], [ 110.193788, -7.729807999999895, 0.0 ], [ 110.193717, -7.729734000999901, 0.0 ], [ 110.193557, -7.72946, 0.0 ], [ 110.193312, -7.729304, 0.0 ], [ 110.193032, -7.729151000999892, 0.0 ], [ 110.192842, -7.729044, 0.0 ], [ 110.192497999000025, -7.72887, 0.0 ], [ 110.192001, -7.728614, 0.0 ], [ 110.191596, -7.728446000999913, 0.0 ], [ 110.191583999000073, -7.728443, 0.0 ], [ 110.191463, -7.72840900099996, 0.0 ], [ 110.191319, -7.728466000999969, 0.0 ], [ 110.191265, -7.728514, 0.0 ], [ 110.191191, -7.728554, 0.0 ], [ 110.190817, -7.728390000999987, 0.0 ], [ 110.190455, -7.728216, 0.0 ], [ 110.190145000000115, -7.728099999999884, 0.0 ], [ 110.190009, -7.728012, 0.0 ], [ 110.189958, -7.727939, 0.0 ], [ 110.189957, -7.727768998999942, 0.0 ], [ 110.189913, -7.727669998999922, 0.0 ], [ 110.189839, -7.727613, 0.0 ], [ 110.189545, -7.727566000999932, 0.0 ], [ 110.189411, -7.727488, 0.0 ], [ 110.189350789000045, -7.727444209999891, 0.0 ], [ 110.189323, -7.727424, 0.0 ], [ 110.189058, -7.727585, 0.0 ], [ 110.18883, -7.727687000999907, 0.0 ], [ 110.188750001000074, -7.727696, 0.0 ], [ 110.188532, -7.727556, 0.0 ], [ 110.188362, -7.727455000999985, 0.0 ], [ 110.188233999, -7.727426, 0.0 ], [ 110.188209400000105, -7.727432899999933, 0.0 ], [ 110.188152, -7.727449, 0.0 ], [ 110.188077, -7.727678, 0.0 ], [ 110.188006, -7.727868, 0.0 ], [ 110.187914999000085, -7.727951, 0.0 ], [ 110.187735001000107, -7.728237, 0.0 ], [ 110.187655, -7.728328, 0.0 ], [ 110.187482, -7.728441, 0.0 ], [ 110.187363, -7.728522, 0.0 ], [ 110.187251, -7.728534, 0.0 ], [ 110.187171, -7.728531, 0.0 ], [ 110.186988, -7.728501, 0.0 ], [ 110.186924686000026, -7.728495281999905, 0.0 ], [ 110.186833, -7.728487, 0.0 ], [ 110.186568001000097, -7.728593, 0.0 ], [ 110.186375, -7.728686, 0.0 ], [ 110.186192, -7.72869500099991, 0.0 ], [ 110.18596, -7.728691, 0.0 ], [ 110.185859, -7.728673, 0.0 ], [ 110.185774, -7.728563, 0.0 ], [ 110.185697, -7.728450998999971, 0.0 ], [ 110.185612, -7.728415998999917, 0.0 ], [ 110.185607, -7.728415, 0.0 ], [ 110.185401, -7.728464, 0.0 ], [ 110.185201, -7.728493, 0.0 ], [ 110.185031, -7.728462, 0.0 ], [ 110.184953, -7.728406000999978, 0.0 ], [ 110.18491, -7.728299, 0.0 ], [ 110.184909001000051, -7.728293000999955, 0.0 ], [ 110.184882, -7.728129, 0.0 ], [ 110.1848430000001, -7.728075, 0.0 ], [ 110.184689001000052, -7.72799, 0.0 ], [ 110.184789, -7.727739, 0.0 ], [ 110.185242999000067, -7.726499001000022, 0.0 ], [ 110.185982000000109, -7.724439, 0.0 ], [ 110.186413, -7.723558, 0.0 ], [ 110.186538, -7.723434, 0.0 ], [ 110.186763487000107, -7.723365406, 0.0 ], [ 110.186846999000082, -7.723340000999947, 0.0 ], [ 110.187070162000083, -7.723374758999981, 0.0 ], [ 110.187855, -7.72349699899997, 0.0 ], [ 110.188064, -7.723399000999944, 0.0 ], [ 110.188204, -7.72329, 0.0 ], [ 110.18850900000011, -7.723192, 0.0 ], [ 110.188743, -7.723222, 0.0 ], [ 110.189287, -7.723401, 0.0 ], [ 110.189584, -7.723420998999899, 0.0 ], [ 110.189703, -7.723396000999962, 0.0 ], [ 110.189893, -7.723308, 0.0 ], [ 110.189969000000119, -7.723225, 0.0 ], [ 110.189998001000035, -7.723174, 0.0 ], [ 110.190098, -7.723024, 0.0 ], [ 110.190212001000063, -7.72282, 0.0 ], [ 110.190241, -7.722799, 0.0 ], [ 110.190392000000131, -7.722676, 0.0 ], [ 110.190491, -7.722541998999912, 0.0 ], [ 110.190585001000017, -7.722529, 0.0 ], [ 110.190742, -7.722505, 0.0 ], [ 110.19093, -7.722347, 0.0 ], [ 110.191033999000041, -7.722268999999883, 0.0 ], [ 110.191276, -7.722159, 0.0 ], [ 110.191407999000077, -7.722103, 0.0 ], [ 110.19169, -7.722046, 0.0 ], [ 110.192267000000101, -7.721945, 0.0 ], [ 110.192532, -7.721811, 0.0 ], [ 110.192708, -7.721803, 0.0 ], [ 110.192833, -7.721742, 0.0 ], [ 110.193035, -7.721654, 0.0 ], [ 110.192869, -7.721558, 0.0 ], [ 110.192798267000086, -7.721529533999984, 0.0 ], [ 110.192787, -7.721525000999964, 0.0 ], [ 110.192575, -7.721592, 0.0 ], [ 110.192431, -7.721629, 0.0 ], [ 110.19208899900012, -7.721583000999967, 0.0 ], [ 110.191913, -7.721566, 0.0 ], [ 110.191738, -7.721361, 0.0 ], [ 110.191553, -7.721223, 0.0 ], [ 110.191547, -7.721219, 0.0 ], [ 110.191444, -7.721196, 0.0 ], [ 110.191293, -7.721251, 0.0 ], [ 110.191203, -7.72129, 0.0 ], [ 110.191107001000049, -7.721241, 0.0 ], [ 110.19093, -7.721092, 0.0 ], [ 110.190741, -7.720991, 0.0 ], [ 110.190611, -7.720924, 0.0 ], [ 110.19056, -7.720853, 0.0 ], [ 110.190526, -7.720726, 0.0 ], [ 110.190359, -7.720591, 0.0 ], [ 110.190304000000125, -7.72052, 0.0 ], [ 110.190258, -7.720237000999887, 0.0 ], [ 110.190197, -7.720056, 0.0 ], [ 110.190086, -7.719936, 0.0 ], [ 110.189824001000019, -7.719809000999913, 0.0 ], [ 110.189735, -7.71978, 0.0 ], [ 110.189952, -7.719461, 0.0 ], [ 110.190186, -7.719257000999981, 0.0 ], [ 110.190447, -7.719113, 0.0 ], [ 110.190712, -7.719068, 0.0 ], [ 110.191418, -7.719161000999943, 0.0 ], [ 110.192175, -7.719200000999972, 0.0 ], [ 110.192591001000082, -7.719237, 0.0 ], [ 110.192891000000131, -7.719318, 0.0 ], [ 110.193076001000065, -7.719457001, 0.0 ], [ 110.194006000000101, -7.719627000999953, 0.0 ], [ 110.194739001000087, -7.719611, 0.0 ], [ 110.195363999000023, -7.719529, 0.0 ], [ 110.195816999000016, -7.719381998999932, 0.0 ], [ 110.196116, -7.719067000999893, 0.0 ], [ 110.196347, -7.718678000999947, 0.0 ], [ 110.196659, -7.717758, 0.0 ], [ 110.197044, -7.717132, 0.0 ], [ 110.197402, -7.716731, 0.0 ], [ 110.197779001000086, -7.716431000999926, 0.0 ], [ 110.198264001000069, -7.71637, 0.0 ], [ 110.198924, -7.71649, 0.0 ], [ 110.199341001000093, -7.716532, 0.0 ], [ 110.199365, -7.716577, 0.0 ], [ 110.199373, -7.716596, 0.0 ], [ 110.199457, -7.716781, 0.0 ], [ 110.199542, -7.716938, 0.0 ], [ 110.199546, -7.716943, 0.0 ], [ 110.199656, -7.717064999999891, 0.0 ], [ 110.19972, -7.717196, 0.0 ], [ 110.199728, -7.717211000999981, 0.0 ], [ 110.199795, -7.717333, 0.0 ], [ 110.199867, -7.717426, 0.0 ], [ 110.200078, -7.717642000999938, 0.0 ], [ 110.200158, -7.717728, 0.0 ], [ 110.200387, -7.717863, 0.0 ], [ 110.200457, -7.717878, 0.0 ], [ 110.20056, -7.717913, 0.0 ], [ 110.200645, -7.717944, 0.0 ], [ 110.200807, -7.718008, 0.0 ], [ 110.201039999000074, -7.718090000999968, 0.0 ], [ 110.201169, -7.71813, 0.0 ], [ 110.201322, -7.718179, 0.0 ], [ 110.201582001000062, -7.718283, 0.0 ], [ 110.201874, -7.718379, 0.0 ], [ 110.202036, -7.718427, 0.0 ], [ 110.202262000000104, -7.718537000999916, 0.0 ], [ 110.202446, -7.718562998999936, 0.0 ], [ 110.202641999000022, -7.718602, 0.0 ], [ 110.202902, -7.71863700099993, 0.0 ], [ 110.203334, -7.718635000999942, 0.0 ], [ 110.203486513000087, -7.718621864999921, 0.0 ], [ 110.203542999000049, -7.718617, 0.0 ], [ 110.203679643000072, -7.718657551999943, 0.0 ], [ 110.203853, -7.718709, 0.0 ], [ 110.204526, -7.719025, 0.0 ], [ 110.204593, -7.719057, 0.0 ], [ 110.205052000000109, -7.718863, 0.0 ], [ 110.205608, -7.71878, 0.0 ], [ 110.206059, -7.718683, 0.0 ], [ 110.20652, -7.718479, 0.0 ], [ 110.206940000000102, -7.718245, 0.0 ], [ 110.207947, -7.717781000999892, 0.0 ], [ 110.20884, -7.717229, 0.0 ], [ 110.209708, -7.716529, 0.0 ], [ 110.210418000000104, -7.715777, 0.0 ], [ 110.211153001000071, -7.71498, 0.0 ], [ 110.211973, -7.714107, 0.0 ], [ 110.212747, -7.713245, 0.0 ], [ 110.213396, -7.712391, 0.0 ], [ 110.213921000000127, -7.711391, 0.0 ], [ 110.214344, -7.710049, 0.0 ], [ 110.214524, -7.708801, 0.0 ], [ 110.214644, -7.707988, 0.0 ], [ 110.214712999000113, -7.707591, 0.0 ], [ 110.214737, -7.707142, 0.0 ], [ 110.214695999000028, -7.706714, 0.0 ], [ 110.214642, -7.706654, 0.0 ], [ 110.214551000000114, -7.706547000999954, 0.0 ], [ 110.214541, -7.706541, 0.0 ], [ 110.214536, -7.706538, 0.0 ], [ 110.214297, -7.706395, 0.0 ], [ 110.214115, -7.706323, 0.0 ], [ 110.213743, -7.706249, 0.0 ], [ 110.213599, -7.706186, 0.0 ], [ 110.213616, -7.706126, 0.0 ], [ 110.213616, -7.70589, 0.0 ], [ 110.213591, -7.705744, 0.0 ], [ 110.213479, -7.705719, 0.0 ], [ 110.213022, -7.705618, 0.0 ], [ 110.212737, -7.705727000999964, 0.0 ], [ 110.21266700000011, -7.705739, 0.0 ], [ 110.212476, -7.705508, 0.0 ], [ 110.21232, -7.705258, 0.0 ], [ 110.212314, -7.705249, 0.0 ], [ 110.212143, -7.705077, 0.0 ], [ 110.212061, -7.704992, 0.0 ], [ 110.211971, -7.704944, 0.0 ], [ 110.211942, -7.704964, 0.0 ], [ 110.211936, -7.704964, 0.0 ], [ 110.211717000000107, -7.704944000999927, 0.0 ], [ 110.211587, -7.704888001, 0.0 ], [ 110.211475, -7.704792000999962, 0.0 ], [ 110.211463, -7.704776998999964, 0.0 ], [ 110.211312, -7.704662, 0.0 ], [ 110.211182, -7.704625, 0.0 ], [ 110.211054, -7.704631000999964, 0.0 ], [ 110.211047, -7.704633, 0.0 ], [ 110.210836, -7.704742, 0.0 ], [ 110.210721, -7.704782, 0.0 ], [ 110.210554001000077, -7.704782, 0.0 ], [ 110.210365, -7.704628, 0.0 ], [ 110.210313, -7.704554, 0.0 ], [ 110.21031, -7.704543998999959, 0.0 ], [ 110.210196, -7.704308, 0.0 ], [ 110.210194, -7.704303, 0.0 ], [ 110.210056, -7.704156, 0.0 ], [ 110.209652, -7.703901998999953, 0.0 ], [ 110.209488999000058, -7.703821, 0.0 ], [ 110.209296, -7.703727, 0.0 ], [ 110.209174000000104, -7.70364599899991, 0.0 ], [ 110.208966000000132, -7.703410999, 0.0 ], [ 110.208722000000108, -7.70332, 0.0 ], [ 110.208526001000052, -7.70323200099994, 0.0 ], [ 110.208451999000062, -7.703152000999982, 0.0 ], [ 110.208357999, -7.703009, 0.0 ], [ 110.2083, -7.702960001, 0.0 ], [ 110.208217, -7.70297, 0.0 ], [ 110.2081, -7.702986, 0.0 ], [ 110.207827, -7.702956, 0.0 ], [ 110.207764, -7.702912, 0.0 ], [ 110.207727, -7.702741, 0.0 ], [ 110.207721, -7.702587, 0.0 ], [ 110.207749, -7.702457, 0.0 ], [ 110.207715, -7.702253, 0.0 ], [ 110.207643, -7.702104, 0.0 ], [ 110.207629, -7.702087, 0.0 ], [ 110.207451, -7.701820999999899, 0.0 ], [ 110.207403, -7.701762, 0.0 ], [ 110.20721, -7.701687, 0.0 ], [ 110.206965001000029, -7.701668, 0.0 ], [ 110.206709, -7.701718, 0.0 ], [ 110.206589, -7.70166, 0.0 ], [ 110.206432, -7.701766, 0.0 ], [ 110.206245999000046, -7.701469, 0.0 ], [ 110.20622200000011, -7.701433, 0.0 ], [ 110.206207, -7.701373, 0.0 ], [ 110.206217, -7.701338, 0.0 ], [ 110.206218, -7.70131, 0.0 ], [ 110.206181, -7.701162, 0.0 ], [ 110.206086001000045, -7.700994, 0.0 ], [ 110.206058, -7.70092, 0.0 ], [ 110.205993, -7.700471, 0.0 ], [ 110.205956, -7.70032700099992, 0.0 ], [ 110.205949001000079, -7.700298, 0.0 ], [ 110.205848, -7.700176, 0.0 ], [ 110.205732, -7.700077, 0.0 ], [ 110.205702999000067, -7.7, 0.0 ], [ 110.205701, -7.699982, 0.0 ], [ 110.20571000000011, -7.699863999999891, 0.0 ], [ 110.205823999000046, -7.699639, 0.0 ], [ 110.205936, -7.699458, 0.0 ], [ 110.206128001000053, -7.699204, 0.0 ], [ 110.206282, -7.699082998999931, 0.0 ], [ 110.206456001000021, -7.698993, 0.0 ], [ 110.206617, -7.698873, 0.0 ], [ 110.206681, -7.698784, 0.0 ], [ 110.206718000000109, -7.698622, 0.0 ], [ 110.206719000000106, -7.698469001000021, 0.0 ], [ 110.207083, -7.697768, 0.0 ], [ 110.207564, -7.697237, 0.0 ], [ 110.207556, -7.69711, 0.0 ], [ 110.207954, -7.697238, 0.0 ], [ 110.208421, -7.697224, 0.0 ], [ 110.208426000000131, -7.697247, 0.0 ], [ 110.208523, -7.697393000999988, 0.0 ], [ 110.208715, -7.69755, 0.0 ], [ 110.208952, -7.697648, 0.0 ], [ 110.209105, -7.697738, 0.0 ], [ 110.209363001000028, -7.698005001, 0.0 ], [ 110.209547, -7.698333, 0.0 ], [ 110.209645, -7.698418998999969, 0.0 ], [ 110.209757000000124, -7.698552, 0.0 ], [ 110.209918000000116, -7.698758, 0.0 ], [ 110.210047000000131, -7.698929, 0.0 ], [ 110.210131, -7.699162, 0.0 ], [ 110.210201001000087, -7.699314000999948, 0.0 ], [ 110.210307, -7.699456, 0.0 ], [ 110.210356, -7.69949, 0.0 ], [ 110.210498, -7.699568000999914, 0.0 ], [ 110.21051400100005, -7.699574, 0.0 ], [ 110.210673, -7.699621, 0.0 ], [ 110.210754999000088, -7.699669, 0.0 ], [ 110.210783, -7.6997, 0.0 ], [ 110.210859, -7.69978, 0.0 ], [ 110.210921, -7.69983, 0.0 ], [ 110.210967, -7.699838, 0.0 ], [ 110.210973, -7.699836, 0.0 ], [ 110.210986, -7.699833000999902, 0.0 ], [ 110.21109, -7.699816, 0.0 ], [ 110.211156, -7.699827, 0.0 ], [ 110.211281, -7.699828, 0.0 ], [ 110.211466000000129, -7.699798, 0.0 ], [ 110.211512999000021, -7.699814, 0.0 ], [ 110.211671000000123, -7.699876, 0.0 ], [ 110.211785999000043, -7.69996, 0.0 ], [ 110.211818001000026, -7.699992, 0.0 ], [ 110.211991, -7.700135998999926, 0.0 ], [ 110.21199500100002, -7.700141, 0.0 ], [ 110.212000999000068, -7.700143, 0.0 ], [ 110.21249, -7.700292, 0.0 ], [ 110.213077, -7.700412, 0.0 ], [ 110.213704, -7.700578000999904, 0.0 ], [ 110.214128000000116, -7.700647, 0.0 ], [ 110.214334000000107, -7.700727, 0.0 ], [ 110.21442399900009, -7.700793, 0.0 ], [ 110.2146410000001, -7.700988999999893, 0.0 ], [ 110.214882, -7.701175, 0.0 ], [ 110.215069, -7.70139, 0.0 ], [ 110.215239, -7.701797, 0.0 ], [ 110.215244, -7.701809000999972, 0.0 ], [ 110.215452, -7.702204, 0.0 ], [ 110.215638001000087, -7.702391, 0.0 ], [ 110.215899999000086, -7.702597, 0.0 ], [ 110.215947, -7.702634, 0.0 ], [ 110.216056, -7.702731, 0.0 ], [ 110.216402001000063, -7.702848998999958, 0.0 ], [ 110.216569, -7.702882, 0.0 ], [ 110.216835, -7.702922998999952, 0.0 ], [ 110.216888, -7.702946999999895, 0.0 ], [ 110.216935, -7.702989, 0.0 ], [ 110.217143, -7.703213, 0.0 ], [ 110.217676, -7.703626998999937, 0.0 ], [ 110.217836999000042, -7.703738000999973, 0.0 ], [ 110.217876, -7.703697, 0.0 ], [ 110.218041, -7.703525, 0.0 ], [ 110.218077, -7.703503, 0.0 ], [ 110.218366, -7.703333, 0.0 ], [ 110.218949, -7.702934000999974, 0.0 ], [ 110.218986, -7.702902, 0.0 ], [ 110.21948600100005, -7.702326, 0.0 ], [ 110.2200050000001, -7.702089, 0.0 ], [ 110.220553, -7.701964, 0.0 ], [ 110.221052, -7.701739, 0.0 ], [ 110.221443, -7.701564, 0.0 ], [ 110.221705, -7.701396, 0.0 ], [ 110.22176100100009, -7.701408, 0.0 ], [ 110.222053, -7.70142, 0.0 ], [ 110.222246, -7.701384998999973, 0.0 ], [ 110.22276, -7.701186, 0.0 ], [ 110.222871, -7.701203000999925, 0.0 ], [ 110.223034001000073, -7.701288, 0.0 ], [ 110.223154, -7.701392, 0.0 ], [ 110.223307, -7.701622, 0.0 ], [ 110.223647, -7.702193, 0.0 ], [ 110.223815, -7.702368, 0.0 ], [ 110.224139, -7.702481, 0.0 ], [ 110.22431, -7.702466, 0.0 ], [ 110.224508, -7.70245100099989, 0.0 ], [ 110.224625, -7.702487, 0.0 ], [ 110.224776, -7.702568000999978, 0.0 ], [ 110.22485099900004, -7.702684, 0.0 ], [ 110.225013, -7.70292, 0.0 ], [ 110.225212, -7.703124, 0.0 ], [ 110.225215, -7.703128, 0.0 ], [ 110.225389, -7.703154000999969, 0.0 ], [ 110.225388, -7.703158, 0.0 ], [ 110.225421, -7.703276, 0.0 ], [ 110.22553, -7.7035, 0.0 ], [ 110.226018001000057, -7.704128, 0.0 ], [ 110.226277999000075, -7.704473, 0.0 ], [ 110.226347, -7.704566, 0.0 ], [ 110.226677, -7.705052, 0.0 ], [ 110.226734, -7.7051, 0.0 ], [ 110.226835, -7.705253, 0.0 ], [ 110.22705, -7.70548, 0.0 ], [ 110.227241, -7.705698, 0.0 ], [ 110.227341, -7.705808001, 0.0 ], [ 110.227991999000054, -7.706522, 0.0 ], [ 110.228455, -7.70703500099992, 0.0 ], [ 110.228943001000047, -7.707636, 0.0 ], [ 110.229087, -7.707825, 0.0 ], [ 110.229597, -7.708359, 0.0 ], [ 110.229945, -7.708693000999968, 0.0 ], [ 110.230112, -7.708846, 0.0 ], [ 110.230315, -7.708997, 0.0 ], [ 110.230374, -7.70904, 0.0 ], [ 110.230418, -7.709069, 0.0 ], [ 110.230507, -7.709128, 0.0 ], [ 110.230617, -7.709203998999971, 0.0 ], [ 110.230631, -7.709221998999951, 0.0 ], [ 110.230833000000104, -7.709389, 0.0 ], [ 110.231276, -7.709677, 0.0 ], [ 110.231607, -7.709825, 0.0 ], [ 110.231663000000125, -7.709848, 0.0 ], [ 110.231957000000108, -7.71, 0.0 ], [ 110.232161000000119, -7.710165, 0.0 ], [ 110.232302999000055, -7.7101, 0.0 ], [ 110.232641, -7.710199, 0.0 ], [ 110.232874, -7.71037499899996, 0.0 ], [ 110.233025, -7.710639, 0.0 ], [ 110.233144, -7.711029, 0.0 ], [ 110.233143, -7.711437999999895, 0.0 ], [ 110.233192, -7.711796, 0.0 ], [ 110.233184, -7.7118, 0.0 ], [ 110.233042, -7.711944, 0.0 ], [ 110.232785001000053, -7.712361, 0.0 ], [ 110.232812, -7.712645, 0.0 ], [ 110.23281299900006, -7.712989, 0.0 ], [ 110.232845602012617, -7.713399621726282, 0.0 ] ] ] ] } },
{ "type": "Feature", "properties": { "NAMOBJ": "Banjaroyo", "WADMKC": "Kalibawang", "WADMKK": "Kabupaten Kulonprogo", "WADMPR": "Daerah Istimewa Yogyakarta" }, "geometry": { "type": "MultiPolygon", "coordinates": [ [ [ [ 110.256507877000104, -7.642904244999961, 0.0 ], [ 110.257278436, -7.643314816999915, 0.0 ], [ 110.258659364000039, -7.643776866999954, 0.0 ], [ 110.259559623000015, -7.64411066799995, 0.0 ], [ 110.260276793000017, -7.644444419999942, 0.0 ], [ 110.260580125999979, -7.644610327, 0.0 ], [ 110.260581965000043, -7.644611332999897, 0.0 ], [ 110.261169436000074, -7.644931302999904, 0.0 ], [ 110.261745608317668, -7.645130267085555, 0.0 ], [ 110.261762, -7.645136, 0.0 ], [ 110.261812055628965, -7.645152685209624, 0.0 ], [ 110.262840278000112, -7.645496334999937, 0.0 ], [ 110.263427724000053, -7.645752880999936, 0.0 ], [ 110.263656609000066, -7.645932173999938, 0.0 ], [ 110.263885519, -7.646239255999944, 0.0 ], [ 110.264001571704512, -7.646427615367337, 0.0 ], [ 110.264118, -7.646622, 0.0 ], [ 110.264249429843147, -7.646848507216887, 0.0 ], [ 110.264396678000111, -7.647109000999965, 0.0 ], [ 110.264678952000011, -7.647595375999884, 0.0 ], [ 110.264923094000139, -7.647875279999951, 0.0 ], [ 110.264923258000152, -7.647875466999967, 0.0 ], [ 110.265309313879513, -7.648315917973171, 0.0 ], [ 110.265372, -7.648388, 0.0 ], [ 110.265883, -7.649104, 0.0 ], [ 110.266088, -7.649539, 0.0 ], [ 110.266113000000104, -7.649897000999985, 0.0 ], [ 110.266094835633027, -7.649946556038635, 0.0 ], [ 110.266006466000078, -7.650178880999949, 0.0 ], [ 110.265932144094918, -7.650351097109588, 0.0 ], [ 110.265907000000112, -7.650407, 0.0 ], [ 110.26569446039872, -7.650555033418851, 0.0 ], [ 110.265649013660521, -7.650586280241313, 0.0 ], [ 110.265291, -7.650688, 0.0 ], [ 110.265290756207136, -7.650688207223901, 0.0 ], [ 110.265289320000065, -7.650688613999936, 0.0 ], [ 110.265252973568167, -7.650720322467077, 0.0 ], [ 110.265111, -7.650841, 0.0 ], [ 110.264854000000113, -7.65107, 0.0 ], [ 110.2647, -7.651249, 0.0 ], [ 110.264545111291639, -7.651512311664856, 0.0 ], [ 110.264518736999989, -7.651556471999889, 0.0 ], [ 110.264312750000087, -7.651888337999903, 0.0 ], [ 110.264030452, -7.652271247999877, 0.0 ], [ 110.263824465000098, -7.652526343999934, 0.0 ], [ 110.263823931446453, -7.652528130160487, 0.0 ], [ 110.263766, -7.6526, 0.0 ], [ 110.2637739078896, -7.652695592429339, 0.0 ], [ 110.263771052000038, -7.652705152999896, 0.0 ], [ 110.263792653482511, -7.652922193567104, 0.0 ], [ 110.2638, -7.653011, 0.0 ], [ 110.263813371240232, -7.653064484960883, 0.0 ], [ 110.263847363000039, -7.653216335999915, 0.0 ], [ 110.26397703900011, -7.653344125999919, 0.0 ], [ 110.264053350000125, -7.653548686999969, 0.0 ], [ 110.264098105381564, -7.65364519883174, 0.0 ], [ 110.264157, -7.653778000999935, 0.0 ], [ 110.264185867634325, -7.653937055438355, 0.0 ], [ 110.264205924000223, -7.654060328999936, 0.0 ], [ 110.264282211000136, -7.654418454999902, 0.0 ], [ 110.264411935000041, -7.654674034999911, 0.0 ], [ 110.264587407000164, -7.655185676999878, 0.0 ], [ 110.264663718, -7.655518026999932, 0.0 ], [ 110.264637223885458, -7.655636104458498, 0.0 ], [ 110.264616, -7.655721, 0.0 ], [ 110.264436, -7.655873999999898, 0.0 ], [ 110.264205, -7.655976, 0.0 ], [ 110.264051, -7.656129, 0.0 ], [ 110.263871, -7.65633300099995, 0.0 ], [ 110.26364, -7.656691, 0.0 ], [ 110.263485, -7.65715, 0.0 ], [ 110.263374128300796, -7.657576264008849, 0.0 ], [ 110.263275150000126, -7.657943227999866, 0.0 ], [ 110.263145449999968, -7.658582201999888, 0.0 ], [ 110.263086150074201, -7.658917174022008, 0.0 ], [ 110.26302, -7.659271, 0.0 ], [ 110.262993718882427, -7.66026578897079, 0.0 ], [ 110.262992876000126, -7.660294027999949, 0.0 ], [ 110.262962361, -7.66093297699997, 0.0 ], [ 110.263092061000165, -7.661137537999931, 0.0 ], [ 110.263320922000091, -7.661189039999929, 0.0 ], [ 110.263679507, -7.661113236999963, 0.0 ], [ 110.26440429400003, -7.661139955999953, 0.0 ], [ 110.265014662999988, -7.661294439999946, 0.0 ], [ 110.265731809000087, -7.661601981999901, 0.0 ], [ 110.266188454802332, -7.661925973266339, 0.0 ], [ 110.266271000000117, -7.661985, 0.0 ], [ 110.266706, -7.66242, 0.0 ], [ 110.26678234866894, -7.662519312916906, 0.0 ], [ 110.266960162000117, -7.66275402399992, 0.0 ], [ 110.267112736000215, -7.663061130999928, 0.0 ], [ 110.267166, -7.66352, 0.0 ], [ 110.267216, -7.664338, 0.0 ], [ 110.267112, -7.665156, 0.0 ], [ 110.26703760784568, -7.665303544439485, 0.0 ], [ 110.266929623000166, -7.665514451999879, 0.0 ], [ 110.26644136200018, -7.665998916999907, 0.0 ], [ 110.266245888406516, -7.666213754184394, 0.0 ], [ 110.265905000000117, -7.666585, 0.0 ], [ 110.26557000000011, -7.667095, 0.0 ], [ 110.265455088181213, -7.667372703562194, 0.0 ], [ 110.265388505000018, -7.667530508999977, 0.0 ], [ 110.26532987696514, -7.667943153163172, 0.0 ], [ 110.265312, -7.668066, 0.0 ], [ 110.265299761738206, -7.668222273189908, 0.0 ], [ 110.265258781000114, -7.668731659999974, 0.0 ], [ 110.265258781000114, -7.669447403999953, 0.0 ], [ 110.265357966000067, -7.670853114999911, 0.0 ], [ 110.265434253000066, -7.671441044999973, 0.0 ], [ 110.265556337000049, -7.671774821999879, 0.0 ], [ 110.265558294000115, -7.67178, 0.0 ], [ 110.265739450000012, -7.672259285999907, 0.0 ], [ 110.265923448280617, -7.672967222972773, 0.0 ], [ 110.265945, -7.673051, 0.0 ], [ 110.265944, -7.673638, 0.0 ], [ 110.265878051518001, -7.673913842208481, 0.0 ], [ 110.265838635000136, -7.674074166999969, 0.0 ], [ 110.265579210999988, -7.674712149, 0.0 ], [ 110.265425139777989, -7.675056204065235, 0.0 ], [ 110.265326, -7.675273, 0.0 ], [ 110.264786, -7.676039, 0.0 ], [ 110.264478, -7.676447, 0.0 ], [ 110.264092, -7.67683, 0.0 ], [ 110.263733, -7.677187, 0.0 ], [ 110.263501, -7.677519, 0.0 ], [ 110.263295, -7.67803, 0.0 ], [ 110.263209874899601, -7.678298088790438, 0.0 ], [ 110.26313783300013, -7.678516366999901, 0.0 ], [ 110.263077998159943, -7.678793661985008, 0.0 ], [ 110.263037, -7.678975, 0.0 ], [ 110.263027147135574, -7.679149319909452, 0.0 ], [ 110.263008109000054, -7.679436187999979, 0.0 ], [ 110.262995477224081, -7.67963845924249, 0.0 ], [ 110.262983000000119, -7.679802, 0.0 ], [ 110.261891, -7.679508, 0.0 ], [ 110.261595, -7.679393, 0.0 ], [ 110.261381, -7.679283, 0.0 ], [ 110.261127, -7.679066, 0.0 ], [ 110.260983, -7.678859, 0.0 ], [ 110.261212, -7.678346, 0.0 ], [ 110.261338, -7.678068, 0.0 ], [ 110.261456, -7.677838, 0.0 ], [ 110.261769, -7.6771, 0.0 ], [ 110.261957, -7.676655, 0.0 ], [ 110.262042, -7.676506, 0.0 ], [ 110.262263, -7.676296, 0.0 ], [ 110.261727000000107, -7.676028, 0.0 ], [ 110.261369, -7.67585, 0.0 ], [ 110.261152, -7.675749, 0.0 ], [ 110.26113, -7.675742, 0.0 ], [ 110.261021, -7.67572, 0.0 ], [ 110.260914, -7.675699, 0.0 ], [ 110.260901, -7.675696, 0.0 ], [ 110.260841, -7.675682, 0.0 ], [ 110.260728, -7.675634, 0.0 ], [ 110.260028, -7.675334, 0.0 ], [ 110.259918, -7.675285, 0.0 ], [ 110.259835, -7.675229000999952, 0.0 ], [ 110.259801, -7.674967, 0.0 ], [ 110.259783000000112, -7.674832, 0.0 ], [ 110.259595, -7.674531, 0.0 ], [ 110.258929, -7.674434, 0.0 ], [ 110.258426, -7.674347, 0.0 ], [ 110.257591, -7.674193, 0.0 ], [ 110.25665, -7.674121, 0.0 ], [ 110.255936, -7.674097, 0.0 ], [ 110.255834, -7.674094, 0.0 ], [ 110.25545, -7.674051, 0.0 ], [ 110.255386, -7.674044, 0.0 ], [ 110.255271, -7.674031, 0.0 ], [ 110.255217, -7.673997999999884, 0.0 ], [ 110.255159, -7.673964, 0.0 ], [ 110.254953, -7.673771, 0.0 ], [ 110.25442, -7.673476, 0.0 ], [ 110.254055, -7.673247, 0.0 ], [ 110.253858, -7.673079, 0.0 ], [ 110.253617000000105, -7.672843, 0.0 ], [ 110.253575, -7.672806, 0.0 ], [ 110.253404, -7.672801, 0.0 ], [ 110.252801, -7.672763, 0.0 ], [ 110.252636, -7.67274, 0.0 ], [ 110.25248, -7.672652, 0.0 ], [ 110.252449, -7.672388, 0.0 ], [ 110.252475, -7.672166, 0.0 ], [ 110.252636, -7.67162, 0.0 ], [ 110.252549, -7.671577, 0.0 ], [ 110.252264, -7.671437, 0.0 ], [ 110.252176, -7.671391, 0.0 ], [ 110.251871, -7.67123, 0.0 ], [ 110.251019, -7.670841000999886, 0.0 ], [ 110.250928, -7.670786, 0.0 ], [ 110.250001, -7.670438, 0.0 ], [ 110.25, -7.670437511999985, 0.0 ], [ 110.249796, -7.670338, 0.0 ], [ 110.249609, -7.670184, 0.0 ], [ 110.249226001000054, -7.669874, 0.0 ], [ 110.249084, -7.669718, 0.0 ], [ 110.248977, -7.669478999, 0.0 ], [ 110.248871001000083, -7.66923, 0.0 ], [ 110.248846, -7.669144, 0.0 ], [ 110.248594, -7.668687, 0.0 ], [ 110.248553, -7.668516000999983, 0.0 ], [ 110.248521, -7.668255, 0.0 ], [ 110.248522, -7.66775, 0.0 ], [ 110.248326000000105, -7.667766, 0.0 ], [ 110.248089, -7.66779, 0.0 ], [ 110.247794, -7.667814, 0.0 ], [ 110.247263, -7.667756, 0.0 ], [ 110.246716, -7.667674, 0.0 ], [ 110.246169, -7.667681000999906, 0.0 ], [ 110.245800999, -7.667680000999912, 0.0 ], [ 110.245646, -7.667647, 0.0 ], [ 110.245326999000042, -7.667598, 0.0 ], [ 110.244829, -7.667491, 0.0 ], [ 110.244657000000117, -7.667564, 0.0 ], [ 110.244436, -7.667783998999901, 0.0 ], [ 110.244387, -7.667906, 0.0 ], [ 110.244183, -7.667954000999934, 0.0 ], [ 110.243758, -7.668002, 0.0 ], [ 110.242973, -7.667985, 0.0 ], [ 110.242451000000102, -7.667952, 0.0 ], [ 110.241471, -7.667675, 0.0 ], [ 110.241213999000081, -7.667665, 0.0 ], [ 110.240807, -7.667682000999989, 0.0 ], [ 110.240312, -7.667782, 0.0 ], [ 110.239321, -7.668225, 0.0 ], [ 110.238324, -7.668775, 0.0 ], [ 110.238009001000108, -7.668876, 0.0 ], [ 110.237563, -7.668896, 0.0 ], [ 110.236573999000115, -7.668769000999955, 0.0 ], [ 110.236225, -7.668758, 0.0 ], [ 110.235805, -7.66881, 0.0 ], [ 110.235393, -7.668942, 0.0 ], [ 110.235124, -7.669139, 0.0 ], [ 110.235105, -7.669449, 0.0 ], [ 110.235061, -7.669469, 0.0 ], [ 110.234797999000079, -7.669583999999887, 0.0 ], [ 110.234604999000098, -7.669670000999897, 0.0 ], [ 110.234608, -7.669695, 0.0 ], [ 110.234637, -7.669824, 0.0 ], [ 110.234609, -7.669946998999901, 0.0 ], [ 110.234582, -7.670039, 0.0 ], [ 110.234611, -7.670128, 0.0 ], [ 110.23456, -7.670113, 0.0 ], [ 110.23452, -7.670216, 0.0 ], [ 110.234475, -7.670219, 0.0 ], [ 110.234284, -7.670146, 0.0 ], [ 110.234173, -7.670127, 0.0 ], [ 110.233867, -7.670256000999888, 0.0 ], [ 110.233557, -7.670406, 0.0 ], [ 110.233315, -7.670536, 0.0 ], [ 110.23321, -7.670616, 0.0 ], [ 110.232921, -7.670934, 0.0 ], [ 110.232785, -7.671114, 0.0 ], [ 110.232582, -7.671509999, 0.0 ], [ 110.232492, -7.671611, 0.0 ], [ 110.232359, -7.671700999999899, 0.0 ], [ 110.232276, -7.671732, 0.0 ], [ 110.232151, -7.671804, 0.0 ], [ 110.232142, -7.671701998999893, 0.0 ], [ 110.231988999000095, -7.671586, 0.0 ], [ 110.231761, -7.67146, 0.0 ], [ 110.231516, -7.671332, 0.0 ], [ 110.231455, -7.671306, 0.0 ], [ 110.231229, -7.671224, 0.0 ], [ 110.23105, -7.67115200099995, 0.0 ], [ 110.23097499900004, -7.671135, 0.0 ], [ 110.230763, -7.671125, 0.0 ], [ 110.230733, -7.671125, 0.0 ], [ 110.230552, -7.671119, 0.0 ], [ 110.230351, -7.671099, 0.0 ], [ 110.2302, -7.671093, 0.0 ], [ 110.23006, -7.671094000999947, 0.0 ], [ 110.230032001, -7.671094, 0.0 ], [ 110.228798, -7.67092, 0.0 ], [ 110.228324, -7.670817, 0.0 ], [ 110.227902, -7.670644, 0.0 ], [ 110.227591, -7.670518, 0.0 ], [ 110.227354, -7.670489000999982, 0.0 ], [ 110.2271, -7.670488, 0.0 ], [ 110.226859, -7.670557, 0.0 ], [ 110.226688, -7.67068, 0.0 ], [ 110.226608, -7.670859000999954, 0.0 ], [ 110.226612, -7.671058, 0.0 ], [ 110.226661, -7.671119998999966, 0.0 ], [ 110.226822, -7.671358, 0.0 ], [ 110.226872000000114, -7.671484000999975, 0.0 ], [ 110.226869, -7.671638, 0.0 ], [ 110.226809, -7.671695000999936, 0.0 ], [ 110.226114, -7.671681, 0.0 ], [ 110.224769, -7.671617, 0.0 ], [ 110.22346, -7.671472, 0.0 ], [ 110.221437, -7.67124, 0.0 ], [ 110.220375, -7.671077, 0.0 ], [ 110.219431, -7.670941, 0.0 ], [ 110.218551, -7.670762000999922, 0.0 ], [ 110.217614001000058, -7.670504, 0.0 ], [ 110.216593001000049, -7.669986, 0.0 ], [ 110.215317, -7.669249, 0.0 ], [ 110.214406, -7.668661, 0.0 ], [ 110.213495, -7.668013, 0.0 ], [ 110.212789, -7.667433, 0.0 ], [ 110.211872, -7.666613, 0.0 ], [ 110.211143, -7.665905000999953, 0.0 ], [ 110.210674999000048, -7.665415, 0.0 ], [ 110.210050000000109, -7.664693, 0.0 ], [ 110.209934, -7.664568, 0.0 ], [ 110.209826, -7.664478000999921, 0.0 ], [ 110.209603, -7.664015, 0.0 ], [ 110.209491, -7.663798, 0.0 ], [ 110.209407, -7.663476, 0.0 ], [ 110.209342, -7.663241, 0.0 ], [ 110.209248999000096, -7.663026998999946, 0.0 ], [ 110.209239, -7.663011, 0.0 ], [ 110.20903, -7.662745, 0.0 ], [ 110.208923000000127, -7.662585, 0.0 ], [ 110.208789, -7.66220300099998, 0.0 ], [ 110.208599, -7.66165, 0.0 ], [ 110.208447, -7.661419000999949, 0.0 ], [ 110.208408, -7.661372, 0.0 ], [ 110.20814, -7.660896998999924, 0.0 ], [ 110.208027, -7.660772000999973, 0.0 ], [ 110.20795, -7.660677, 0.0 ], [ 110.207882001000058, -7.660452, 0.0 ], [ 110.207746, -7.660023, 0.0 ], [ 110.207719, -7.659839000999959, 0.0 ], [ 110.207602, -7.659592, 0.0 ], [ 110.207526, -7.659433998999933, 0.0 ], [ 110.207465, -7.659196, 0.0 ], [ 110.207469001000078, -7.659045, 0.0 ], [ 110.207516, -7.658847, 0.0 ], [ 110.207432, -7.65853, 0.0 ], [ 110.207387, -7.658363, 0.0 ], [ 110.207427, -7.658106, 0.0 ], [ 110.20744, -7.658023, 0.0 ], [ 110.207383, -7.657966000999973, 0.0 ], [ 110.207342, -7.657939, 0.0 ], [ 110.20730300000011, -7.657912, 0.0 ], [ 110.207272, -7.657683, 0.0 ], [ 110.207328, -7.657500000999963, 0.0 ], [ 110.207291, -7.65722, 0.0 ], [ 110.207351, -7.656951, 0.0 ], [ 110.207236, -7.656544, 0.0 ], [ 110.207208, -7.656395, 0.0 ], [ 110.207299, -7.656267, 0.0 ], [ 110.207356999000055, -7.656180998999986, 0.0 ], [ 110.207375001000031, -7.656032, 0.0 ], [ 110.207347000000112, -7.655921, 0.0 ], [ 110.207233, -7.655816, 0.0 ], [ 110.207061, -7.655721000999939, 0.0 ], [ 110.206513001000118, -7.655524, 0.0 ], [ 110.206374, -7.655455, 0.0 ], [ 110.206318, -7.655388, 0.0 ], [ 110.206339000000114, -7.655083001, 0.0 ], [ 110.206332, -7.655029, 0.0 ], [ 110.20611, -7.654938001, 0.0 ], [ 110.205719999000053, -7.654794, 0.0 ], [ 110.205659001000072, -7.654617, 0.0 ], [ 110.205691, -7.654367, 0.0 ], [ 110.205695, -7.654276, 0.0 ], [ 110.205555, -7.654126000999952, 0.0 ], [ 110.205475, -7.654054, 0.0 ], [ 110.205469, -7.653888000999888, 0.0 ], [ 110.205507, -7.653767, 0.0 ], [ 110.205585999000064, -7.653673, 0.0 ], [ 110.205687, -7.65364399899995, 0.0 ], [ 110.205783, -7.653642, 0.0 ], [ 110.205815000000101, -7.653114, 0.0 ], [ 110.205807, -7.653033, 0.0 ], [ 110.205677, -7.652964, 0.0 ], [ 110.205567, -7.652893, 0.0 ], [ 110.205487999000042, -7.652728, 0.0 ], [ 110.20534899900008, -7.652308, 0.0 ], [ 110.205337, -7.652265, 0.0 ], [ 110.205319, -7.651904000999956, 0.0 ], [ 110.205319, -7.651896, 0.0 ], [ 110.205318, -7.651844000999965, 0.0 ], [ 110.2053003095875, -7.651805670789759, 0.0 ], [ 110.205355396595422, -7.65176711587663, 0.0 ], [ 110.205455, -7.651699, 0.0 ], [ 110.205594000000104, -7.651502, 0.0 ], [ 110.205600925215791, -7.651479245719852, 0.0 ], [ 110.206726082000074, -7.651221243999952, 0.0 ], [ 110.207992567000232, -7.650692432999985, 0.0 ], [ 110.209327698000038, -7.64995429899993, 0.0 ], [ 110.209328247733978, -7.649953968218128, 0.0 ], [ 110.20933, -7.649953001, 0.0 ], [ 110.209482905803085, -7.64986090851383, 0.0 ], [ 110.210556027000152, -7.649215197999883, 0.0 ], [ 110.211090109000111, -7.648875690999947, 0.0 ], [ 110.211361363971747, -7.648685878050323, 0.0 ], [ 110.211872, -7.64833, 0.0 ], [ 110.212099872474994, -7.648204167867647, 0.0 ], [ 110.212303157000107, -7.648092702999911, 0.0 ], [ 110.21254729900015, -7.648016899999945, 0.0 ], [ 110.213478097000163, -7.64788956899989, 0.0 ], [ 110.21397399900016, -7.647716490999958, 0.0 ], [ 110.214004514000109, -7.647716007999918, 0.0 ], [ 110.214156619910824, -7.64774406223956, 0.0 ], [ 110.214338001000073, -7.647863001, 0.0 ], [ 110.214338725643358, -7.647863342005358, 0.0 ], [ 110.214340225000086, -7.647864325999933, 0.0 ], [ 110.214454643000224, -7.64792010799993, 0.0 ], [ 110.214584343000027, -7.647998764999954, 0.0 ], [ 110.214744582000051, -7.648089365999901, 0.0 ], [ 110.214782714, -7.648094153999942, 0.0 ], [ 110.214912414000082, -7.648138039999932, 0.0 ], [ 110.215048537604204, -7.64819509262993, 0.0 ], [ 110.215092000000112, -7.648214, 0.0 ], [ 110.215093134672031, -7.648213784318482, 0.0 ], [ 110.215095527000045, -7.648214786999887, 0.0 ], [ 110.215199158074967, -7.648193631109692, 0.0 ], [ 110.215211882455549, -7.648191212425772, 0.0 ], [ 110.215461728000065, -7.648163283999889, 0.0 ], [ 110.215614326999983, -7.648141835999891, 0.0 ], [ 110.215660099000047, -7.648134195999969, 0.0 ], [ 110.2158508280001, -7.648078412999972, 0.0 ], [ 110.215873726000041, -7.648103220999893, 0.0 ], [ 110.216003426000114, -7.648190944999957, 0.0 ], [ 110.216064456000012, -7.648207653999918, 0.0 ], [ 110.216224671000035, -7.648255795, 0.0 ], [ 110.216438299000217, -7.648282972999933, 0.0 ], [ 110.216728213000223, -7.648349273999912, 0.0 ], [ 110.216903685000091, -7.64837645199994, 0.0 ], [ 110.217056284, -7.648488984999926, 0.0 ], [ 110.217170726000063, -7.648605312999869, 0.0 ], [ 110.217292785000126, -7.648724542999965, 0.0 ], [ 110.217376713000235, -7.648731675999933, 0.0 ], [ 110.217619495829723, -7.648731675999933, 0.0 ], [ 110.217646526744034, -7.64874389189383, 0.0 ], [ 110.21772004100022, -7.64877887499993, 0.0 ], [ 110.217857357000128, -7.648842781999889, 0.0 ], [ 110.217994698000027, -7.648897621999897, 0.0 ], [ 110.21811678200001, -7.648994436999914, 0.0 ], [ 110.218367686975299, -7.649109889026786, 0.0 ], [ 110.218422884519512, -7.64918132114283, 0.0 ], [ 110.218452444000064, -7.649219961999922, 0.0 ], [ 110.219696055000028, -7.64906547699993, 0.0 ], [ 110.222030631000095, -7.649448846999942, 0.0 ], [ 110.224365254000176, -7.649805037999926, 0.0 ], [ 110.225608817000037, -7.649861303999963, 0.0 ], [ 110.228164685000124, -7.650028192999915, 0.0 ], [ 110.230586840991279, -7.650305270799464, 0.0 ], [ 110.230585999000098, -7.650312, 0.0 ], [ 110.2305575972714, -7.650360983401374, 0.0 ], [ 110.230514542000137, -7.65043257399989, 0.0 ], [ 110.23052215899996, -7.650482142999905, 0.0 ], [ 110.230537440000077, -7.650505983999924, 0.0 ], [ 110.23062896, -7.650571316999912, 0.0 ], [ 110.230630678862482, -7.650569773109297, 0.0 ], [ 110.230631, -7.65057, 0.0 ], [ 110.230694, -7.650515, 0.0 ], [ 110.230781762386755, -7.650460218941781, 0.0 ], [ 110.230850229000112, -7.650418235999947, 0.0 ], [ 110.23087310300005, -7.650402518999979, 0.0 ], [ 110.231010420000132, -7.650344825999913, 0.0 ], [ 110.231155401000137, -7.650326231999973, 0.0 ], [ 110.231369029000049, -7.650330994999923, 0.0 ], [ 110.231613171, -7.650338611999931, 0.0 ], [ 110.231681818000084, -7.65035386899995, 0.0 ], [ 110.231971757, -7.650410618999938, 0.0 ], [ 110.232101431999979, -7.65041158599993, 0.0 ], [ 110.232368473000136, -7.650420628999967, 0.0 ], [ 110.232391371000077, -7.65042781099994, 0.0 ], [ 110.232487377542, -7.650473635209789, 0.0 ], [ 110.232578999000069, -7.650518, 0.0 ], [ 110.232581715844773, -7.650518663164132, 0.0 ], [ 110.232582101000048, -7.650518846999923, 0.0 ], [ 110.23282969600011, -7.650580769999895, 0.0 ], [ 110.232833860000014, -7.650581810999892, 0.0 ], [ 110.23310851700009, -7.65063713499994, 0.0 ], [ 110.233327047890455, -7.65068705006491, 0.0 ], [ 110.233349001000093, -7.65071, 0.0 ], [ 110.233390973011907, -7.650743228188752, 0.0 ], [ 110.233444228000153, -7.650787314999931, 0.0 ], [ 110.233582281463043, -7.650873626465639, 0.0 ], [ 110.233633, -7.650906, 0.0 ], [ 110.233727006253503, -7.650955544259698, 0.0 ], [ 110.233856202000041, -7.6510243, 0.0 ], [ 110.233932489000139, -7.65105578199994, 0.0 ], [ 110.234100345000087, -7.651157820999945, 0.0 ], [ 110.234313973000084, -7.651366200999956, 0.0 ], [ 110.234451289, -7.65147491299998, 0.0 ], [ 110.23461914500011, -7.651508304999901, 0.0 ], [ 110.234764102000028, -7.651573154999937, 0.0 ], [ 110.234823617173532, -7.651626954172521, 0.0 ], [ 110.234860999000048, -7.651662, 0.0 ], [ 110.234956195997896, -7.651819588559984, 0.0 ], [ 110.23500824500006, -7.651907415999883, 0.0 ], [ 110.235084532000073, -7.651954130999929, 0.0 ], [ 110.235450758000169, -7.652041878999906, 0.0 ], [ 110.235740672000176, -7.652084797999905, 0.0 ], [ 110.235832217000024, -7.652100055999924, 0.0 ], [ 110.236119185452324, -7.652167094657305, 0.0 ], [ 110.236238324471771, -7.652227904881894, 0.0 ], [ 110.236312885, -7.652266484999927, 0.0 ], [ 110.236480717000035, -7.652317503999974, 0.0 ], [ 110.236961361000013, -7.652458640999928, 0.0 ], [ 110.237052930000047, -7.652504412999896, 0.0 ], [ 110.237141776896024, -7.652579239987169, 0.0 ], [ 110.237195, -7.65262600099992, 0.0 ], [ 110.237314560292049, -7.652743631936023, 0.0 ], [ 110.237319946000113, -7.652749038999975, 0.0 ], [ 110.237350764000439, -7.652779267687883, 0.0 ], [ 110.237767, -7.653189, 0.0 ], [ 110.237778, -7.653194998999926, 0.0 ], [ 110.23786411525262, -7.653211145609752, 0.0 ], [ 110.237876902000011, -7.653213941999894, 0.0 ], [ 110.238273232679845, -7.653256844289526, 0.0 ], [ 110.238377, -7.653328001, 0.0 ], [ 110.23845112010747, -7.65337863714204, 0.0 ], [ 110.238578790000176, -7.653467635999924, 0.0 ], [ 110.238754262000128, -7.653504340999941, 0.0 ], [ 110.238815753145374, -7.653547361111503, 0.0 ], [ 110.2388270000001, -7.653556, 0.0 ], [ 110.238848063269018, -7.65361872173407, 0.0 ], [ 110.238868729000089, -7.653690790999914, 0.0 ], [ 110.238914501000153, -7.653764683999988, 0.0 ], [ 110.23896024900003, -7.653821433999976, 0.0 ], [ 110.239265446000147, -7.653724641999961, 0.0 ], [ 110.239418043999976, -7.653740866999971, 0.0 ], [ 110.239615011746366, -7.653806674502885, 0.0 ], [ 110.239661124510718, -7.653837416593714, 0.0 ], [ 110.239799503000015, -7.653931112999903, 0.0 ], [ 110.240371716000013, -7.654298282, 0.0 ], [ 110.240376679709811, -7.654298227387681, 0.0 ], [ 110.240378999000086, -7.654299000999966, 0.0 ], [ 110.240437776497089, -7.654297555181746, 0.0 ], [ 110.240501416000086, -7.654296854999966, 0.0 ], [ 110.240631092000157, -7.654249655999969, 0.0 ], [ 110.240632407127904, -7.654248214232286, 0.0 ], [ 110.240632999000056, -7.654247998999921, 0.0 ], [ 110.240658379279267, -7.65421974109768, 0.0 ], [ 110.240730277000111, -7.654140919999943, 0.0 ], [ 110.240753175000052, -7.654048891999967, 0.0 ], [ 110.240715044, -7.653951616999912, 0.0 ], [ 110.24065507710668, -7.653813669287459, 0.0 ], [ 110.240631312094422, -7.653757734563406, 0.0 ], [ 110.240635999005633, -7.653741562348639, 0.0 ], [ 110.240665001000124, -7.653652, 0.0 ], [ 110.240736805214524, -7.653557217104236, 0.0 ], [ 110.240791331000011, -7.653487656999893, 0.0 ], [ 110.240951545000115, -7.653377493999926, 0.0 ], [ 110.241065988000088, -7.653356505999877, 0.0 ], [ 110.241165173000027, -7.653405638999946, 0.0 ], [ 110.241302490000109, -7.65353867599994, 0.0 ], [ 110.241401675000063, -7.653591604999878, 0.0 ], [ 110.241516117000117, -7.653587300999966, 0.0 ], [ 110.241683949000148, -7.65351720399994, 0.0 ], [ 110.242034917000055, -7.653316947999979, 0.0 ], [ 110.242117749076812, -7.653275911117376, 0.0 ], [ 110.242244000000127, -7.653213998999988, 0.0 ], [ 110.242267619667061, -7.653171913047931, 0.0 ], [ 110.242301934000025, -7.653116666999928, 0.0 ], [ 110.242301934000025, -7.653054385489046, 0.0 ], [ 110.242305, -7.65299, 0.0 ], [ 110.242312600159721, -7.652870470215547, 0.0 ], [ 110.242317216000046, -7.652818192999923, 0.0 ], [ 110.24235978659776, -7.652763758872762, 0.0 ], [ 110.242402979346437, -7.652711239820277, 0.0 ], [ 110.242453940358288, -7.652720329471798, 0.0 ], [ 110.242461539304287, -7.652731072809306, 0.0 ], [ 110.242507921000112, -7.652801484999962, 0.0 ], [ 110.242538460000148, -7.652967429999926, 0.0 ], [ 110.242599489000042, -7.65309521999993, 0.0 ], [ 110.242675776000056, -7.653147181999966, 0.0 ], [ 110.242797860000024, -7.653152912999907, 0.0 ], [ 110.242958075000047, -7.653074715999921, 0.0 ], [ 110.243018400306852, -7.652992193229171, 0.0 ], [ 110.243027999000063, -7.65298, 0.0 ], [ 110.243032206663798, -7.652938277829293, 0.0 ], [ 110.243042001999981, -7.652862054999911, 0.0 ], [ 110.243072517000101, -7.652699905999906, 0.0 ], [ 110.243179319000063, -7.652554488999954, 0.0 ], [ 110.243362432000026, -7.6524228789999, 0.0 ], [ 110.243865974000116, -7.652121043999973, 0.0 ], [ 110.243919387, -7.652067630999905, 0.0 ], [ 110.244018573000048, -7.651967502999881, 0.0 ], [ 110.244247434000059, -7.651697608999932, 0.0 ], [ 110.244319739125245, -7.651614848180934, 0.0 ], [ 110.244395, -7.651531001, 0.0 ], [ 110.244418, -7.651504999999894, 0.0 ], [ 110.24443531841591, -7.65147712157437, 0.0 ], [ 110.244461061000067, -7.651440118999943, 0.0 ], [ 110.244560246, -7.6513161489999, 0.0 ], [ 110.244682306000158, -7.651252241999941, 0.0 ], [ 110.245040915000075, -7.651154023999897, 0.0 ], [ 110.245086686999954, -7.65108583799994, 0.0 ], [ 110.245086686999954, -7.651037764440851, 0.0 ], [ 110.245088, -7.651001, 0.0 ], [ 110.245052, -7.650617, 0.0 ], [ 110.2450979050071, -7.650475613496301, 0.0 ], [ 110.245101920000067, -7.650464031999917, 0.0 ], [ 110.24511457305654, -7.650425819033259, 0.0 ], [ 110.245219, -7.650117, 0.0 ], [ 110.245463999, -7.649563, 0.0 ], [ 110.245555819689187, -7.649508053341638, 0.0 ], [ 110.245590230000147, -7.649487945999891, 0.0 ], [ 110.245864887000039, -7.649339167999926, 0.0 ], [ 110.245865587540465, -7.649338223479553, 0.0 ], [ 110.245866, -7.649338, 0.0 ], [ 110.245922, -7.649266, 0.0 ], [ 110.245939125645947, -7.649243736660296, 0.0 ], [ 110.245941174000052, -7.649241432999922, 0.0 ], [ 110.246315017000072, -7.648721665999904, 0.0 ], [ 110.246483136338171, -7.648470439579437, 0.0 ], [ 110.246570001000038, -7.648344, 0.0 ], [ 110.246566776000122, -7.648289184137049, 0.0 ], [ 110.246566776000122, -7.648243415999946, 0.0 ], [ 110.246517318891222, -7.648151830051876, 0.0 ], [ 110.246447, -7.648016000999959, 0.0 ], [ 110.246429796857342, -7.647946551275854, 0.0 ], [ 110.24642181800003, -7.647908671999872, 0.0 ], [ 110.246433540408233, -7.647840802947716, 0.0 ], [ 110.246447, -7.647775, 0.0 ], [ 110.246455095960499, -7.647769412647023, 0.0 ], [ 110.246521004000058, -7.647726984999938, 0.0 ], [ 110.246574416000044, -7.647740815999928, 0.0 ], [ 110.246645934640114, -7.647818868182778, 0.0 ], [ 110.246656999000038, -7.647830998999929, 0.0 ], [ 110.246714010460479, -7.647906521415184, 0.0 ], [ 110.246734607000064, -7.64793393999992, 0.0 ], [ 110.24686433100014, -7.647943006999959, 0.0 ], [ 110.246932977000128, -7.647892446999951, 0.0 ], [ 110.246994031000028, -7.647772297999957, 0.0 ], [ 110.247024545999977, -7.647623495999902, 0.0 ], [ 110.247070318000041, -7.647398455999934, 0.0 ], [ 110.24713134800011, -7.646851510999888, 0.0 ], [ 110.247184737, -7.646640277, 0.0 ], [ 110.247276305000113, -7.646505329999933, 0.0 ], [ 110.247364720542564, -7.646449156502257, 0.0 ], [ 110.247368029205063, -7.64644717805454, 0.0 ], [ 110.247459394000074, -7.646461926999894, 0.0 ], [ 110.247527218305365, -7.646525501298164, 0.0 ], [ 110.247573864970292, -7.646632616853967, 0.0 ], [ 110.247634890000029, -7.646774280999892, 0.0 ], [ 110.247734074999983, -7.646932560999932, 0.0 ], [ 110.247810645078076, -7.646966488748188, 0.0 ], [ 110.2478160000001, -7.646969000999928, 0.0 ], [ 110.247816162451841, -7.646968933463818, 0.0 ], [ 110.247818003000177, -7.646969748999901, 0.0 ], [ 110.247875503177951, -7.6469442637237, 0.0 ], [ 110.247905, -7.646932000999886, 0.0 ], [ 110.248006864424369, -7.646846355727767, 0.0 ], [ 110.248062146000038, -7.646800950999967, 0.0 ], [ 110.248184205000186, -7.646737067999922, 0.0 ], [ 110.248313904999989, -7.64676661599988, 0.0 ], [ 110.248527533000171, -7.646803344999899, 0.0 ], [ 110.248626718000025, -7.646652680999956, 0.0 ], [ 110.248644767958353, -7.646618540759366, 0.0 ], [ 110.248660001000118, -7.646593999999897, 0.0 ], [ 110.248797983432183, -7.646370025269846, 0.0 ], [ 110.248931890000051, -7.646337014999951, 0.0 ], [ 110.24893327751407, -7.646336180868786, 0.0 ], [ 110.248934001000052, -7.646336, 0.0 ], [ 110.248948608079516, -7.646326964599883, 0.0 ], [ 110.249031075, -7.646277387999902, 0.0 ], [ 110.249153134000068, -7.646132913999939, 0.0 ], [ 110.249305732999986, -7.645962204999936, 0.0 ], [ 110.249343888000041, -7.645934542999957, 0.0 ], [ 110.249382020000084, -7.645929779999918, 0.0 ], [ 110.249572749000052, -7.645943610999907, 0.0 ], [ 110.249664318000086, -7.646001303999885, 0.0 ], [ 110.249740605000085, -7.646057593999924, 0.0 ], [ 110.249893203000099, -7.646172011999887, 0.0 ], [ 110.25, -7.646198730999878, 0.0 ], [ 110.25, -7.646206999666607, 0.0 ], [ 110.250019271141369, -7.646203145771715, 0.0 ], [ 110.250022903, -7.646203977999956, 0.0 ], [ 110.250129880768782, -7.64617945412094, 0.0 ], [ 110.250132, -7.646179, 0.0 ], [ 110.250213000000102, -7.646161, 0.0 ], [ 110.250347, -7.645925, 0.0 ], [ 110.250320434000102, -7.645856813933307, 0.0 ], [ 110.250320434000102, -7.645849188999911, 0.0 ], [ 110.250244147, -7.64565560599997, 0.0 ], [ 110.250204354066966, -7.645504127529936, 0.0 ], [ 110.250163, -7.645335, 0.0 ], [ 110.250135158645762, -7.644901821281682, 0.0 ], [ 110.250129705000219, -7.644807308999948, 0.0 ], [ 110.250182744609987, -7.644759449550389, 0.0 ], [ 110.250256, -7.644696, 0.0 ], [ 110.250873, -7.644246, 0.0 ], [ 110.251014982855949, -7.64414201843784, 0.0 ], [ 110.25121307700006, -7.643998110999874, 0.0 ], [ 110.251282547882795, -7.643892678175803, 0.0 ], [ 110.251345, -7.643799, 0.0 ], [ 110.251288, -7.643762, 0.0 ], [ 110.251249000000101, -7.643737, 0.0 ], [ 110.251213, -7.643713, 0.0 ], [ 110.251074000000102, -7.643684, 0.0 ], [ 110.250828, -7.643657, 0.0 ], [ 110.250736504831849, -7.643584253841642, 0.0 ], [ 110.250709534000052, -7.643561328999883, 0.0 ], [ 110.250648505000072, -7.643445459999977, 0.0 ], [ 110.250656121000162, -7.643368229999894, 0.0 ], [ 110.250717909361711, -7.643315449273082, 0.0 ], [ 110.250726407837234, -7.643308485244528, 0.0 ], [ 110.250930778000154, -7.643171285999941, 0.0 ], [ 110.250991832000139, -7.643126456999962, 0.0 ], [ 110.251060694412189, -7.643062882244191, 0.0 ], [ 110.25143, -7.642724, 0.0 ], [ 110.251659000000103, -7.642539, 0.0 ], [ 110.251735, -7.642454, 0.0 ], [ 110.251747342072775, -7.642448667005521, 0.0 ], [ 110.251899732000126, -7.642385444999935, 0.0 ], [ 110.252182006000027, -7.642334909999928, 0.0 ], [ 110.252868661000093, -7.642437914999924, 0.0 ], [ 110.253181450000213, -7.642464125999961, 0.0 ], [ 110.25335692200008, -7.642464609999912, 0.0 ], [ 110.253746047000035, -7.642235264999943, 0.0 ], [ 110.254257206000133, -7.642031647999971, 0.0 ], [ 110.254692078000062, -7.642083609999919, 0.0 ], [ 110.255409224000061, -7.642314888999959, 0.0 ], [ 110.255648641565571, -7.642416894872241, 0.0 ], [ 110.255947, -7.642545001, 0.0 ], [ 110.256150796980691, -7.642674361133441, 0.0 ], [ 110.256507877000104, -7.642904244999961, 0.0 ] ] ] ] } }
]
}
