{
"type": "FeatureCollection",
"name": "Batas Kelurahan",
"crs": { "type": "name", "properties": { "name": "urn:ogc:def:crs:OGC:1.3:CRS84" } },
"features": [
{ "type": "Feature", "properties": { "NAMOBJ": "Banjarharjo", "WADMKC": "Kalibawang", "WADMKK": "Kabupaten Kulonprogo", "WADMPR": "DI Yogyakarta" }, "geometry": { "type": "MultiPolygon", "coordinates": [ [ [ [ 110.263008109000054, -7.680356007999968, 0.0 ], [ 110.263010562118126, -7.680361873319576, 0.0 ], [ 110.263034, -7.680465, 0.0 ], [ 110.26306, -7.680483, 0.0 ], [ 110.263087553313227, -7.680501249597029, 0.0 ], [ 110.263214120000143, -7.680586295999927, 0.0 ], [ 110.263648993000146, -7.680689300999923, 0.0 ], [ 110.264030452, -7.680817574999967, 0.0 ], [ 110.264236463000088, -7.680971598999921, 0.0 ], [ 110.264389061000188, -7.681227178999929, 0.0 ], [ 110.264465348000101, -7.681508509999937, 0.0 ], [ 110.264486044478943, -7.681751076937406, 0.0 ], [ 110.264494, -7.681865, 0.0 ], [ 110.264434837111708, -7.68204134044548, 0.0 ], [ 110.264389061000188, -7.682172750999918, 0.0 ], [ 110.264183050000014, -7.682555636999979, 0.0 ], [ 110.263771773772362, -7.682810310059509, 0.0 ], [ 110.263415, -7.68286, 0.0 ], [ 110.263056, -7.682936, 0.0 ], [ 110.263054509291138, -7.682936987359003, 0.0 ], [ 110.263053882000023, -7.682937119999924, 0.0 ], [ 110.263009929431689, -7.682966514471847, 0.0 ], [ 110.262825, -7.683089000999967, 0.0 ], [ 110.262689111743981, -7.683223831231214, 0.0 ], [ 110.262565621000036, -7.683345272999944, 0.0 ], [ 110.262093454418746, -7.683831065596049, 0.0 ], [ 110.261772000000107, -7.684161000999936, 0.0 ], [ 110.261656070296041, -7.684276177662721, 0.0 ], [ 110.261306752000152, -7.68462084999997, 0.0 ], [ 110.261100764999981, -7.684927448999936, 0.0 ], [ 110.260992648297375, -7.685242115111325, 0.0 ], [ 110.260924, -7.685437, 0.0 ], [ 110.260876180129287, -7.685626119875845, 0.0 ], [ 110.260765078, -7.686051345999935, 0.0 ], [ 110.260818491000165, -7.686460466999947, 0.0 ], [ 110.260917677000108, -7.686869103999918, 0.0 ], [ 110.261093492987925, -7.687139748729479, 0.0 ], [ 110.2611, -7.68715, 0.0 ], [ 110.261102899597105, -7.687153760414802, 0.0 ], [ 110.261352549000037, -7.68748326799993, 0.0 ], [ 110.261711134000123, -7.687739814999929, 0.0 ], [ 110.262046821000098, -7.687868088999974, 0.0 ], [ 110.262405382000011, -7.687945342999882, 0.0 ], [ 110.262870793000062, -7.687894806999875, 0.0 ], [ 110.263229347671441, -7.687946764605027, 0.0 ], [ 110.263432, -7.688099, 0.0 ], [ 110.263585, -7.688304, 0.0 ], [ 110.263659908987293, -7.688453452564794, 0.0 ], [ 110.263786333000141, -7.688714498999929, 0.0 ], [ 110.263992320000042, -7.68912361999994, 0.0 ], [ 110.264036836026563, -7.689294184027908, 0.0 ], [ 110.264045, -7.689326999999892, 0.0 ], [ 110.264045512252167, -7.689327427156424, 0.0 ], [ 110.264045709000115, -7.689328181, 0.0 ], [ 110.264350881000141, -7.689584219999947, 0.0 ], [ 110.265014662999988, -7.690122096999954, 0.0 ], [ 110.265556337000049, -7.690608471999962, 0.0 ], [ 110.265785222000062, -7.691018075999924, 0.0 ], [ 110.265800589817758, -7.691106289684459, 0.0 ], [ 110.265836, -7.691323, 0.0 ], [ 110.265861000000115, -7.691835, 0.0 ], [ 110.265856640108652, -7.691950456385356, 0.0 ], [ 110.265830994000211, -7.692551118999937, 0.0 ], [ 110.265809316940334, -7.692986700288397, 0.0 ], [ 110.265808, -7.69301, 0.0 ], [ 110.265808132138659, -7.693010507826472, 0.0 ], [ 110.265808096, -7.693011233999904, 0.0 ], [ 110.265960718000017, -7.693599211999882, 0.0 ], [ 110.266045822195181, -7.693778870857273, 0.0 ], [ 110.266165, -7.694032999999891, 0.0 ], [ 110.26637, -7.694187, 0.0 ], [ 110.266416548104175, -7.694208698204676, 0.0 ], [ 110.266754151000029, -7.694367377999935, 0.0 ], [ 110.267036449000116, -7.694623440999894, 0.0 ], [ 110.267265334000143, -7.694853752999943, 0.0 ], [ 110.26749422000016, -7.69516083499995, 0.0 ], [ 110.267671332921196, -7.695463636982282, 0.0 ], [ 110.26788, -7.695825, 0.0 ], [ 110.268391000000108, -7.696695, 0.0 ], [ 110.268521722504133, -7.696956445008187, 0.0 ], [ 110.268669136000113, -7.697258448999957, 0.0 ], [ 110.268745423000126, -7.697667569999879, 0.0 ], [ 110.268679618219835, -7.6979048334358, 0.0 ], [ 110.268645, -7.698024, 0.0 ], [ 110.26844, -7.698433, 0.0 ], [ 110.268416995842827, -7.698511744999649, 0.0 ], [ 110.268386862000028, -7.698612681999919, 0.0 ], [ 110.268416757078981, -7.698798767373251, 0.0 ], [ 110.268439, -7.698944000999976, 0.0 ], [ 110.268502229660882, -7.699116638932015, 0.0 ], [ 110.268615723000138, -7.699430923999941, 0.0 ], [ 110.268786067802495, -7.699755404595489, 0.0 ], [ 110.268949, -7.700068999999889, 0.0 ], [ 110.269378, -7.700666, 0.0 ], [ 110.269410123823135, -7.700713580296672, 0.0 ], [ 110.269828795000052, -7.701334906999914, 0.0 ], [ 110.270378110000124, -7.702192270999976, 0.0 ], [ 110.270568863000094, -7.70261333699991, 0.0 ], [ 110.270675142538778, -7.702873684749314, 0.0 ], [ 110.270728000000119, -7.703004, 0.0 ], [ 110.270887, -7.703774, 0.0 ], [ 110.270886, -7.70434, 0.0 ], [ 110.270813000000132, -7.704717, 0.0 ], [ 110.270772260471489, -7.704788458447311, 0.0 ], [ 110.270561223000172, -7.705152955999985, 0.0 ], [ 110.270431523000013, -7.705471982999914, 0.0 ], [ 110.270432812263991, -7.705473873805204, 0.0 ], [ 110.27042, -7.70567, 0.0 ], [ 110.269829189000092, -7.70611219799995, 0.0 ], [ 110.269044275000155, -7.706741026999932, 0.0 ], [ 110.26860179015469, -7.707107341503374, 0.0 ], [ 110.268559193676879, -7.707120666017399, 0.0 ], [ 110.267652819000133, -7.707192368999884, 0.0 ], [ 110.26674307800009, -7.706888331999952, 0.0 ], [ 110.264848008000143, -7.706128883999909, 0.0 ], [ 110.263627362339562, -7.705660068225803, 0.0 ], [ 110.26362736233871, -7.705660068225441, 0.0 ], [ 110.262883535000057, -7.705374384999921, 0.0 ], [ 110.261250001000164, -7.705583330999978, 0.0 ], [ 110.260444768000156, -7.70549794099993, 0.0 ], [ 110.259105795000124, -7.705450386999903, 0.0 ], [ 110.257388889, -7.705555552999989, 0.0 ], [ 110.256998586000122, -7.705835684999986, 0.0 ], [ 110.256000738000154, -7.706087211999925, 0.0 ], [ 110.255446090748123, -7.706173356877201, 0.0 ], [ 110.255399153000027, -7.706180646999929, 0.0 ], [ 110.254689325000101, -7.707238087999936, 0.0 ], [ 110.25454139300011, -7.707475076999916, 0.0 ], [ 110.253686827553793, -7.708244295387303, 0.0 ], [ 110.253588438994456, -7.708280142381831, 0.0 ], [ 110.252488609247351, -7.708526662043848, 0.0 ], [ 110.252265, -7.708553, 0.0 ], [ 110.252128978556442, -7.708549295936386, 0.0 ], [ 110.251172592000088, -7.708441869999973, 0.0 ], [ 110.251108642226257, -7.708438522790352, 0.0 ], [ 110.250993, -7.708416, 0.0 ], [ 110.250755, -7.708416, 0.0 ], [ 110.250399, -7.708397999999896, 0.0 ], [ 110.250389840270174, -7.708400899813885, 0.0 ], [ 110.250161840000032, -7.708388965999948, 0.0 ], [ 110.25, -7.708473915345728, 0.0 ], [ 110.249868420141581, -7.708542981231094, 0.0 ], [ 110.24954, -7.708590000999973, 0.0 ], [ 110.249215, -7.708289, 0.0 ], [ 110.248479, -7.707861, 0.0 ], [ 110.247891, -7.7075790009999, 0.0 ], [ 110.247261999000088, -7.707351, 0.0 ], [ 110.246566, -7.707163, 0.0 ], [ 110.245946, -7.707087, 0.0 ], [ 110.245835, -7.707346, 0.0 ], [ 110.245511, -7.707769000999988, 0.0 ], [ 110.245474, -7.707792, 0.0 ], [ 110.2454, -7.707728, 0.0 ], [ 110.245369, -7.707584, 0.0 ], [ 110.245327999000025, -7.707422, 0.0 ], [ 110.245233, -7.707228001, 0.0 ], [ 110.245154000000113, -7.707158, 0.0 ], [ 110.244728, -7.707141, 0.0 ], [ 110.244466001000035, -7.707119, 0.0 ], [ 110.244332999000036, -7.70704, 0.0 ], [ 110.244233, -7.706953, 0.0 ], [ 110.244206000000105, -7.70693900099997, 0.0 ], [ 110.244164, -7.70692, 0.0 ], [ 110.243929999000088, -7.706868, 0.0 ], [ 110.243719, -7.706828, 0.0 ], [ 110.243526, -7.7067, 0.0 ], [ 110.243291, -7.706567, 0.0 ], [ 110.243220001000054, -7.706517, 0.0 ], [ 110.243181, -7.706439999999894, 0.0 ], [ 110.243123000000111, -7.706357, 0.0 ], [ 110.243, -7.706181, 0.0 ], [ 110.242778, -7.705839, 0.0 ], [ 110.242512, -7.705431000999987, 0.0 ], [ 110.242527, -7.70537, 0.0 ], [ 110.242532, -7.704927, 0.0 ], [ 110.24256, -7.704797, 0.0 ], [ 110.242632, -7.704588, 0.0 ], [ 110.242638, -7.704537000999913, 0.0 ], [ 110.242584, -7.704511, 0.0 ], [ 110.242517, -7.704556, 0.0 ], [ 110.242439001, -7.704609, 0.0 ], [ 110.242534, -7.704424, 0.0 ], [ 110.24255700100008, -7.70411200099992, 0.0 ], [ 110.242511, -7.703927, 0.0 ], [ 110.242245999000019, -7.703464, 0.0 ], [ 110.242132999, -7.703315998999962, 0.0 ], [ 110.24194, -7.703145, 0.0 ], [ 110.241779000000108, -7.702986, 0.0 ], [ 110.241751, -7.702957, 0.0 ], [ 110.241290999000057, -7.70261, 0.0 ], [ 110.241276, -7.702622, 0.0 ], [ 110.241232999000047, -7.702677, 0.0 ], [ 110.241131001000042, -7.70281, 0.0 ], [ 110.241089, -7.702857, 0.0 ], [ 110.240998999000055, -7.702936, 0.0 ], [ 110.240984, -7.702949, 0.0 ], [ 110.240889, -7.702994, 0.0 ], [ 110.240739000000119, -7.703042, 0.0 ], [ 110.240404000000112, -7.703148, 0.0 ], [ 110.240392, -7.703147, 0.0 ], [ 110.240289000000104, -7.703118, 0.0 ], [ 110.239976, -7.70299, 0.0 ], [ 110.239853, -7.702926, 0.0 ], [ 110.239690001000014, -7.702822000999944, 0.0 ], [ 110.239692, -7.702624000999904, 0.0 ], [ 110.239598, -7.702312000999935, 0.0 ], [ 110.239627, -7.702022000999921, 0.0 ], [ 110.239708, -7.701754, 0.0 ], [ 110.239874999000037, -7.701515000999983, 0.0 ], [ 110.240021, -7.701283000999972, 0.0 ], [ 110.240334999000083, -7.700652999999893, 0.0 ], [ 110.240657, -7.699935001, 0.0 ], [ 110.240848, -7.699504000999948, 0.0 ], [ 110.240822, -7.699103998999892, 0.0 ], [ 110.240742, -7.698757, 0.0 ], [ 110.240568999000089, -7.698449, 0.0 ], [ 110.240342, -7.697995, 0.0 ], [ 110.240141999000016, -7.697394, 0.0 ], [ 110.240076, -7.696887, 0.0 ], [ 110.240117001000087, -7.696513, 0.0 ], [ 110.240251, -7.696166, 0.0 ], [ 110.24048, -7.695766, 0.0 ], [ 110.240829000000105, -7.695326, 0.0 ], [ 110.241204, -7.69486, 0.0 ], [ 110.24146, -7.694179000999981, 0.0 ], [ 110.241527999000127, -7.693499, 0.0 ], [ 110.24144899900007, -7.693045, 0.0 ], [ 110.241276, -7.692457, 0.0 ], [ 110.240781001000045, -7.691856, 0.0 ], [ 110.239578, -7.690665, 0.0 ], [ 110.239527, -7.69052, 0.0 ], [ 110.23945100000013, -7.690553, 0.0 ], [ 110.239336, -7.690546, 0.0 ], [ 110.239265, -7.690502998999939, 0.0 ], [ 110.23921, -7.69039, 0.0 ], [ 110.23908, -7.690253, 0.0 ], [ 110.238912000000127, -7.690147000999971, 0.0 ], [ 110.238784, -7.690073998999971, 0.0 ], [ 110.238778, -7.690069, 0.0 ], [ 110.238600999000056, -7.689968, 0.0 ], [ 110.238385, -7.689891, 0.0 ], [ 110.238151, -7.689814, 0.0 ], [ 110.23814, -7.68981, 0.0 ], [ 110.238051, -7.689741, 0.0 ], [ 110.238025, -7.689697, 0.0 ], [ 110.237518, -7.68942, 0.0 ], [ 110.23705, -7.689246, 0.0 ], [ 110.236461, -7.689125, 0.0 ], [ 110.236231, -7.689106, 0.0 ], [ 110.235964001000099, -7.689071000999938, 0.0 ], [ 110.235790001000083, -7.689057, 0.0 ], [ 110.235654, -7.689005, 0.0 ], [ 110.235453, -7.688706999000019, 0.0 ], [ 110.235359, -7.688345, 0.0 ], [ 110.235341, -7.688276000999974, 0.0 ], [ 110.235287000000127, -7.688125, 0.0 ], [ 110.235191999000079, -7.687907, 0.0 ], [ 110.235151, -7.687864001, 0.0 ], [ 110.235098, -7.687811, 0.0 ], [ 110.234961, -7.68749, 0.0 ], [ 110.234919, -7.687436, 0.0 ], [ 110.234604, -7.686879, 0.0 ], [ 110.23431, -7.686358, 0.0 ], [ 110.234095, -7.685821998999966, 0.0 ], [ 110.234093999, -7.685764, 0.0 ], [ 110.234052, -7.685564, 0.0 ], [ 110.23397, -7.685375, 0.0 ], [ 110.233921, -7.685262, 0.0 ], [ 110.233907, -7.685217, 0.0 ], [ 110.233881, -7.685134000999973, 0.0 ], [ 110.23374200100001, -7.684943, 0.0 ], [ 110.233756, -7.684620999999893, 0.0 ], [ 110.233729, -7.68453, 0.0 ], [ 110.233517, -7.684231, 0.0 ], [ 110.233179, -7.683838, 0.0 ], [ 110.233169000000117, -7.683823, 0.0 ], [ 110.23311, -7.683696998999913, 0.0 ], [ 110.233095, -7.683515, 0.0 ], [ 110.233137001000046, -7.683162, 0.0 ], [ 110.233176001000075, -7.682828000999955, 0.0 ], [ 110.23314, -7.682646, 0.0 ], [ 110.233075, -7.682456, 0.0 ], [ 110.233005, -7.68225, 0.0 ], [ 110.232817, -7.682315, 0.0 ], [ 110.232638, -7.682428, 0.0 ], [ 110.232564, -7.682447, 0.0 ], [ 110.232500000000101, -7.682398, 0.0 ], [ 110.232123999000081, -7.682075, 0.0 ], [ 110.232010999000053, -7.682003, 0.0 ], [ 110.231773999000069, -7.68198600099992, 0.0 ], [ 110.231625, -7.682027000999938, 0.0 ], [ 110.231493, -7.682139, 0.0 ], [ 110.231472, -7.682157, 0.0 ], [ 110.231438001000072, -7.682190001000013, 0.0 ], [ 110.231335, -7.682129, 0.0 ], [ 110.231247, -7.681996, 0.0 ], [ 110.231134, -7.681880998999937, 0.0 ], [ 110.231077999000036, -7.68181700099997, 0.0 ], [ 110.231046, -7.681620000999924, 0.0 ], [ 110.231045, -7.681467000999966, 0.0 ], [ 110.231044, -7.68114, 0.0 ], [ 110.23102, -7.680975, 0.0 ], [ 110.230892, -7.680656, 0.0 ], [ 110.230827, -7.68056, 0.0 ], [ 110.230784, -7.68047, 0.0 ], [ 110.230767, -7.680335000999918, 0.0 ], [ 110.230766, -7.680264998999988, 0.0 ], [ 110.230861, -7.680118, 0.0 ], [ 110.230894, -7.679954, 0.0 ], [ 110.230876999000103, -7.679786, 0.0 ], [ 110.230699, -7.679428, 0.0 ], [ 110.230688, -7.679403, 0.0 ], [ 110.230247000000119, -7.67897, 0.0 ], [ 110.229887, -7.678612, 0.0 ], [ 110.229682001000086, -7.678279, 0.0 ], [ 110.229505, -7.678042, 0.0 ], [ 110.229394, -7.677940001, 0.0 ], [ 110.229353001000035, -7.677919000999946, 0.0 ], [ 110.228938, -7.677832, 0.0 ], [ 110.228892999000081, -7.677829, 0.0 ], [ 110.228782, -7.677698, 0.0 ], [ 110.228595, -7.677497, 0.0 ], [ 110.228489, -7.677163998999916, 0.0 ], [ 110.228436, -7.676869998999926, 0.0 ], [ 110.228449, -7.676686, 0.0 ], [ 110.228458999000054, -7.676686000999979, 0.0 ], [ 110.228574, -7.676603, 0.0 ], [ 110.228655999000097, -7.676503, 0.0 ], [ 110.228686, -7.676467, 0.0 ], [ 110.228717, -7.67643900099997, 0.0 ], [ 110.228837, -7.676374, 0.0 ], [ 110.228839, -7.676187, 0.0 ], [ 110.228839, -7.676126, 0.0 ], [ 110.228819, -7.675868, 0.0 ], [ 110.228815, -7.675850001, 0.0 ], [ 110.228773, -7.675646, 0.0 ], [ 110.22871400000011, -7.67551, 0.0 ], [ 110.228627000000102, -7.675299, 0.0 ], [ 110.228508, -7.675053000999956, 0.0 ], [ 110.228365, -7.674833, 0.0 ], [ 110.228336, -7.674799000999901, 0.0 ], [ 110.228277, -7.674746, 0.0 ], [ 110.228236, -7.674734, 0.0 ], [ 110.228034, -7.674722000999925, 0.0 ], [ 110.227988, -7.674658, 0.0 ], [ 110.227990999000056, -7.674443, 0.0 ], [ 110.228028, -7.674255999, 0.0 ], [ 110.228045001000083, -7.673823, 0.0 ], [ 110.228025, -7.673611000999927, 0.0 ], [ 110.228013999000012, -7.673578, 0.0 ], [ 110.227923, -7.673410999999899, 0.0 ], [ 110.227805, -7.673233, 0.0 ], [ 110.22773, -7.673055, 0.0 ], [ 110.227674, -7.672636998999984, 0.0 ], [ 110.227385001000101, -7.672307, 0.0 ], [ 110.227124, -7.672008, 0.0 ], [ 110.226956999000038, -7.671999, 0.0 ], [ 110.226957999000035, -7.671973, 0.0 ], [ 110.226974001000116, -7.671947, 0.0 ], [ 110.226826, -7.67183, 0.0 ], [ 110.226812, -7.671819, 0.0 ], [ 110.22682699900011, -7.671785, 0.0 ], [ 110.226828000000111, -7.671744999999898, 0.0 ], [ 110.226809, -7.671695000999936, 0.0 ], [ 110.226869, -7.671638, 0.0 ], [ 110.226872000000114, -7.671484000999975, 0.0 ], [ 110.226822, -7.671358, 0.0 ], [ 110.226661, -7.671119998999966, 0.0 ], [ 110.226612, -7.671058, 0.0 ], [ 110.226608, -7.670859000999954, 0.0 ], [ 110.226688, -7.67068, 0.0 ], [ 110.226859, -7.670557, 0.0 ], [ 110.2271, -7.670488, 0.0 ], [ 110.227354, -7.670489000999982, 0.0 ], [ 110.227591, -7.670518, 0.0 ], [ 110.227902, -7.670644, 0.0 ], [ 110.228324, -7.670817, 0.0 ], [ 110.228798, -7.67092, 0.0 ], [ 110.230032001, -7.671094, 0.0 ], [ 110.23006, -7.671094000999947, 0.0 ], [ 110.2302, -7.671093, 0.0 ], [ 110.230351, -7.671099, 0.0 ], [ 110.230552, -7.671119, 0.0 ], [ 110.230733, -7.671125, 0.0 ], [ 110.230763, -7.671125, 0.0 ], [ 110.23097499900004, -7.671135, 0.0 ], [ 110.23105, -7.67115200099995, 0.0 ], [ 110.231229, -7.671224, 0.0 ], [ 110.231455, -7.671306, 0.0 ], [ 110.231516, -7.671332, 0.0 ], [ 110.231761, -7.67146, 0.0 ], [ 110.231988999000095, -7.671586, 0.0 ], [ 110.232142, -7.671701998999893, 0.0 ], [ 110.232151, -7.671804, 0.0 ], [ 110.232276, -7.671732, 0.0 ], [ 110.232359, -7.671700999999899, 0.0 ], [ 110.232492, -7.671611, 0.0 ], [ 110.232582, -7.671509999, 0.0 ], [ 110.232785, -7.671114, 0.0 ], [ 110.232921, -7.670934, 0.0 ], [ 110.23321, -7.670616, 0.0 ], [ 110.233315, -7.670536, 0.0 ], [ 110.233557, -7.670406, 0.0 ], [ 110.233867, -7.670256000999888, 0.0 ], [ 110.234173, -7.670127, 0.0 ], [ 110.234284, -7.670146, 0.0 ], [ 110.234475, -7.670219, 0.0 ], [ 110.23452, -7.670216, 0.0 ], [ 110.23456, -7.670113, 0.0 ], [ 110.234611, -7.670128, 0.0 ], [ 110.234582, -7.670039, 0.0 ], [ 110.234609, -7.669946998999901, 0.0 ], [ 110.234637, -7.669824, 0.0 ], [ 110.234608, -7.669695, 0.0 ], [ 110.234604999000098, -7.669670000999897, 0.0 ], [ 110.234797999000079, -7.669583999999887, 0.0 ], [ 110.235061, -7.669469, 0.0 ], [ 110.235105, -7.669449, 0.0 ], [ 110.235124, -7.669139, 0.0 ], [ 110.235393, -7.668942, 0.0 ], [ 110.235805, -7.66881, 0.0 ], [ 110.236225, -7.668758, 0.0 ], [ 110.236573999000115, -7.668769000999955, 0.0 ], [ 110.237563, -7.668896, 0.0 ], [ 110.238009001000108, -7.668876, 0.0 ], [ 110.238324, -7.668775, 0.0 ], [ 110.239321, -7.668225, 0.0 ], [ 110.240312, -7.667782, 0.0 ], [ 110.240807, -7.667682000999989, 0.0 ], [ 110.241213999000081, -7.667665, 0.0 ], [ 110.241471, -7.667675, 0.0 ], [ 110.242451000000102, -7.667952, 0.0 ], [ 110.242973, -7.667985, 0.0 ], [ 110.243758, -7.668002, 0.0 ], [ 110.244183, -7.667954000999934, 0.0 ], [ 110.244387, -7.667906, 0.0 ], [ 110.244436, -7.667783998999901, 0.0 ], [ 110.244657000000117, -7.667564, 0.0 ], [ 110.244829, -7.667491, 0.0 ], [ 110.245326999000042, -7.667598, 0.0 ], [ 110.245646, -7.667647, 0.0 ], [ 110.245800999, -7.667680000999912, 0.0 ], [ 110.246169, -7.667681000999906, 0.0 ], [ 110.246716, -7.667674, 0.0 ], [ 110.247263, -7.667756, 0.0 ], [ 110.247794, -7.667814, 0.0 ], [ 110.248089, -7.66779, 0.0 ], [ 110.248326000000105, -7.667766, 0.0 ], [ 110.248522, -7.66775, 0.0 ], [ 110.248521, -7.668255, 0.0 ], [ 110.248553, -7.668516000999983, 0.0 ], [ 110.248594, -7.668687, 0.0 ], [ 110.248846, -7.669144, 0.0 ], [ 110.248871001000083, -7.66923, 0.0 ], [ 110.248977, -7.669478999, 0.0 ], [ 110.249084, -7.669718, 0.0 ], [ 110.249226001000054, -7.669874, 0.0 ], [ 110.249609, -7.670184, 0.0 ], [ 110.249796, -7.670338, 0.0 ], [ 110.25, -7.670437511999985, 0.0 ], [ 110.250001, -7.670438, 0.0 ], [ 110.250928, -7.670786, 0.0 ], [ 110.251019, -7.670841000999886, 0.0 ], [ 110.251478, -7.671079, 0.0 ], [ 110.251871, -7.67123, 0.0 ], [ 110.252176, -7.671391, 0.0 ], [ 110.252264, -7.671437, 0.0 ], [ 110.252549, -7.671577, 0.0 ], [ 110.252636, -7.67162, 0.0 ], [ 110.252475, -7.672166, 0.0 ], [ 110.252449, -7.672388, 0.0 ], [ 110.25248, -7.672652, 0.0 ], [ 110.252636, -7.67274, 0.0 ], [ 110.252801, -7.672763, 0.0 ], [ 110.253404, -7.672801, 0.0 ], [ 110.253575, -7.672806, 0.0 ], [ 110.253617000000105, -7.672843, 0.0 ], [ 110.253858, -7.673079, 0.0 ], [ 110.254055, -7.673247, 0.0 ], [ 110.25442, -7.673476, 0.0 ], [ 110.254953, -7.673771, 0.0 ], [ 110.255159, -7.673964, 0.0 ], [ 110.255217, -7.673997999999884, 0.0 ], [ 110.255271, -7.674031, 0.0 ], [ 110.255386, -7.674044, 0.0 ], [ 110.25545, -7.674051, 0.0 ], [ 110.255834, -7.674094, 0.0 ], [ 110.255936, -7.674097, 0.0 ], [ 110.25665, -7.674121, 0.0 ], [ 110.257591, -7.674193, 0.0 ], [ 110.258426, -7.674347, 0.0 ], [ 110.258929, -7.674434, 0.0 ], [ 110.259595, -7.674531, 0.0 ], [ 110.259783000000112, -7.674832, 0.0 ], [ 110.259801, -7.674967, 0.0 ], [ 110.259835, -7.675229000999952, 0.0 ], [ 110.259918, -7.675285, 0.0 ], [ 110.260028, -7.675334, 0.0 ], [ 110.260728, -7.675634, 0.0 ], [ 110.260841, -7.675682, 0.0 ], [ 110.260901, -7.675696, 0.0 ], [ 110.260914, -7.675699, 0.0 ], [ 110.261021, -7.67572, 0.0 ], [ 110.26113, -7.675742, 0.0 ], [ 110.261152, -7.675749, 0.0 ], [ 110.261369, -7.67585, 0.0 ], [ 110.261727000000107, -7.676028, 0.0 ], [ 110.262263, -7.676296, 0.0 ], [ 110.262042, -7.676506, 0.0 ], [ 110.261957, -7.676655, 0.0 ], [ 110.261769, -7.6771, 0.0 ], [ 110.261456, -7.677838, 0.0 ], [ 110.261338, -7.678068, 0.0 ], [ 110.261212, -7.678346, 0.0 ], [ 110.260983, -7.678859, 0.0 ], [ 110.261127, -7.679066, 0.0 ], [ 110.261381, -7.679283, 0.0 ], [ 110.261595, -7.679393, 0.0 ], [ 110.261891, -7.679508, 0.0 ], [ 110.262983000000119, -7.679802, 0.0 ], [ 110.262972594140564, -7.679936444120951, 0.0 ], [ 110.262954721000085, -7.680125695999919, 0.0 ], [ 110.263008109000054, -7.680356007999968, 0.0 ] ] ] ] } }
]
}
