{
"type": "FeatureCollection",
"name": "Batas Padukuhan",
"crs": { "type": "name", "properties": { "name": "urn:ogc:def:crs:OGC:1.3:CRS84" } },
"features": [
{ "type": "Feature", "properties": { "id": null }, "geometry": { "type": "MultiPolygon", "coordinates": [ [ [ [ 110.267277894026819, -7.694868480322199 ], [ 110.267053131000111, -7.695025706999957 ], [ 110.267023806000083, -7.695037459999952 ], [ 110.266877467000057, -7.695135103999949 ], [ 110.266682654000093, -7.695296240999959 ], [ 110.266509153000044, -7.695423423999912 ], [ 110.266285965000051, -7.695565862999974 ], [ 110.266142248000065, -7.695652004999907 ], [ 110.266059623000061, -7.695649755999987 ], [ 110.265493647000127, -7.695488618999978 ], [ 110.265393339000084, -7.695471451999978 ], [ 110.26483484600007, -7.695325250999961 ], [ 110.263865141000039, -7.695057556999927 ], [ 110.263404286000096, -7.694941677999932 ], [ 110.263168729000057, -7.694884959999946 ], [ 110.263030203000056, -7.694836991999974 ], [ 110.26282557800009, -7.694777856999966 ], [ 110.262615937000064, -7.694709568999912 ], [ 110.26236694300006, -7.694632122999987 ], [ 110.262093982000039, -7.694555874999896 ], [ 110.261407970612865, -7.694335528951479 ], [ 110.260913336000044, -7.694182301999984 ], [ 110.260589684621863, -7.694076405054328 ], [ 110.260244186092336, -7.693971846288811 ], [ 110.26000324632831, -7.693894563722994 ], [ 110.259770551000088, -7.693817538999912 ], [ 110.258541403394759, -7.693446147725232 ], [ 110.258775819092989, -7.69287456292659 ], [ 110.259045716375113, -7.692372277379036 ], [ 110.259241601452231, -7.692309664562345 ], [ 110.25947411544621, -7.692324919626117 ], [ 110.259570674970746, -7.692289296537638 ], [ 110.259731691330671, -7.691672430373728 ], [ 110.259761530905962, -7.69163295160979 ], [ 110.259970240294933, -7.691640495322645 ], [ 110.260239381495978, -7.691451696933106 ], [ 110.261144300682332, -7.689916784600057 ], [ 110.261635272276934, -7.688698447680119 ], [ 110.261840074888369, -7.687789366311503 ], [ 110.262048, -7.687867000999949 ], [ 110.262407, -7.687944000999925 ], [ 110.262868000000111, -7.687894 ], [ 110.263229347671455, -7.687946764605003 ], [ 110.263432, -7.688099 ], [ 110.263585, -7.688304 ], [ 110.263659908987293, -7.688453452564771 ], [ 110.2637900000001, -7.688713 ], [ 110.26399400000011, -7.689122 ], [ 110.264045, -7.689327 ], [ 110.265018, -7.690121 ], [ 110.265556, -7.690607 ], [ 110.265786, -7.691017 ], [ 110.265800589817673, -7.691106289684081 ], [ 110.265836, -7.691323 ], [ 110.265861000000129, -7.691835 ], [ 110.265856640108751, -7.691950456381869 ], [ 110.265834, -7.69255 ], [ 110.265808132138574, -7.693010507826804 ], [ 110.265961, -7.693598 ], [ 110.266045822193504, -7.693778870853608 ], [ 110.266165, -7.694033 ], [ 110.26637, -7.694187 ], [ 110.266416548106932, -7.694208698205985 ], [ 110.266754385414856, -7.694365443852685 ], [ 110.267036683352671, -7.694621507237187 ], [ 110.267265567778125, -7.6948518186478 ], [ 110.267277894026819, -7.694868480322199 ] ] ] ] } }
]
}
