{
"type": "FeatureCollection",
"name": "UMKM",
"crs": { "type": "name", "properties": { "name": "urn:ogc:def:crs:OGC:1.3:CRS84" } },
"features": [
{ "type": "Feature", "properties": { "Name": "Produsen Arang Kayu\n", "GoogleMaps": "https://maps.app.goo.gl/FKx6wX3hCBeL8ctx7", "Jenis": "Industri Rumah Tangga", "Produk": "Arang Kayu", "Deskripsi": "Memproduksi arang kayu untuk kebutuhan rumah tangga dan usaha", "Foto": "assets/images/Produsen_Arang.png" }, "geometry": { "type": "Point", "coordinates": [ 110.263909988708804, -7.694921995127668 ] } },
{ "type": "Feature", "properties": { "Name": "Jasa Penggilingan dan Serit Padi\n", "GoogleMaps": "https://maps.app.goo.gl/vzMbuJXkaS3Nb9f77", "Jenis": "Jasa", "Produk": "Penggilingan Padi", "Deskripsi": "Melayani jasa penggilingan dan serit padi bagi masyarakat sekitar", "Foto": "assets/images/Penggilingan_Padi.jpeg" }, "geometry": { "type": "Point", "coordinates": [ 110.2637121922143, -7.694880982869692 ] } },
{ "type": "Feature", "properties": { "Name": "Slondok Pak Mujiman", "GoogleMaps": "https://maps.app.goo.gl/y63W5yEL5QP2ipm67", "Jenis": "Makanan", "Produk": "Slondok", "Deskripsi": "UMKM yang memproduksi makanan ringan tradisional berupa slondok khas daerah", "Foto": "assets/images/Slondok_Mujiman.png" }, "geometry": { "type": "Point", "coordinates": [ 110.263506978059795, -7.694805404184747 ] } },
{ "type": "Feature", "properties": { "Name": "Jahit Kurnia", "GoogleMaps": "https://maps.app.goo.gl/fUYZho4BmsvKWXww6", "Jenis": "Jasa", "Produk": "Jasa Jahit", "Deskripsi": "Menyediakan jasa jahit pakaian dan perbaikan berbagai jenis pakaian", "Foto": "assets/images/Jahit_Kurnia.png" }, "geometry": { "type": "Point", "coordinates": [ 110.2632758161418, -7.694731588450724 ] } },
{ "type": "Feature", "properties": { "Name": "Pengepul Kelapa dan Hasil Bumi\n", "GoogleMaps": "https://maps.app.goo.gl/RHzzQE9fiswMFm9V7", "Jenis": "Perdagangan", "Produk": "Kelapa dan Hasil Bumi", "Deskripsi": "Mengumpulkan dan menyalurkan kelapa serta berbagai hasil bumi dari petani setempat", "Foto": "assets/images/Pengepul_Kelapa.jpeg" }, "geometry": { "type": "Point", "coordinates": [ 110.261273385483605, -7.694021222779879 ] } },
{ "type": "Feature", "properties": { "Name": "Slondok Pak Kamsi", "GoogleMaps": "https://maps.app.goo.gl/1JyBSdgaPv1iZn578", "Jenis": "Makanan", "Produk": "Slondok", "Deskripsi": "UMKM yang memproduksi makanan ringan tradisional berupa slondok khas daerah", "Foto": "assets/images/Slondok_Kamsi.png" }, "geometry": { "type": "Point", "coordinates": [ 110.261006256969594, -7.693823356500522 ] } },
{ "type": "Feature", "properties": { "Name": "Slondok Pak Wagimin", "GoogleMaps": "https://maps.app.goo.gl/GmURdAQtiTpCMPvw5", "Jenis": "Makanan", "Produk": "Slondok", "Deskripsi": "UMKM yang memproduksi makanan ringan tradisional berupa slondok khas daerah", "Foto": "assets/images/Slondok_Wagimin.png" }, "geometry": { "type": "Point", "coordinates": [ 110.260655566506699, -7.693016818996069 ] } }
]
}
